"name","street","street2","zip","city","country:id","phone","email","bic"
"Межбанковский Центр расчетов Центрального банка","100001, г. Ташкент, Мирабадский район, ул. Ислама Каримова, 6",,,"г.Ташкент","base.uz",,,"00001"
"Клиринговый центр розничных платежей Центрального банка","100001, г. Ташкент, Мирабадский район, ул. Ислама Каримова, 6",,,"г.Ташкент","base.uz",,,"00002"
"Клиринговый центр мгновенных платежей Центрального банка","100001, г. Ташкент, Мирабадский район, ул. Ислама Каримова, 6",,,"г.Ташкент","base.uz",,,"00003"
"Расчетно-кассовый центр Центрального банка по г. Ташкенту","100001, г. Ташкент, Мирабадский район, ул. Ислама Каримова, 6",,,"г.Ташкент","base.uz",,,"00014"
"Расчетно-кассовый центр Центрального банка по Республике Каракалпакстан","230100, Республика Каракалпакстан, г. Нукус, ул. Каракалпакстанская, 18",,,"Республика Каракалпакстан","base.uz",,,"00015"
"Расчетно-кассовый центр Центрального банка по Андижанской области","170100, Андижанская область, г. Андижан, проспект Навои, 17",,,"Андижанская область","base.uz",,,"00016"
"Расчетно-кассовый центр Центрального банка по Бухарской области","200114, Бухарская область, г. Бухара, ул. Мустакиллик, 28/1",,,"Бухарская область","base.uz",,,"00017"
"Расчетно-кассовый центр Центрального банка по Джизакской области","130100, Джизакская область, г. Джизак, проспект Ш.Рашидова, 16",,,"Джизакская область","base.uz",,,"00018"
"Расчетно-кассовый центр Центрального банка по Кашкадарьинской области","180100, Кашкадарьинская область, г. Карши, проспект Мустакиллик, 3",,,"Кашкадарьинская область","base.uz",,,"00019"
"Расчетно-кассовый центр Центрального банка по Навоийской области","210109, Навоийская область, г. Навои, проспект Галаба, 220",,,"Навоийская область","base.uz",,,"00020"
"Расчетно-кассовый центр Центрального банка по Наманганской области","160136, Наманганская область, г. Наманган, ул. Боборахима Машраба, 2",,,"Наманганская область","base.uz",,,"00021"
"Расчетно-кассовый центр Центрального банка по Самаркандской области","140100, Самаркандская область, г. Самарканд, ул. Шохрух, 19",,,"Самаркандская область","base.uz",,,"00022"
"Расчетно-кассовый центр Центрального банка по Сырдарьинской области","120100, Сырдарьинская область, г. Гулистан, ул. Узбекистанская, 93",,,"Сырдарьинская область","base.uz",,,"00023"
"Расчетно-кассовый центр Центрального банка по Сурхандарьинской области","190112, Сурхандарьинская область, г. Термез, ул. Ат-Термизий, 7-А",,,"Сурхандарьинская область","base.uz",,,"00024"
"Расчетно-кассовый центр Центрального банка по Ташкентской области","100019, г. Ташкент, Алмазарский район, ул. А.Кадыри, 1-А",,,"г.Ташкент","base.uz",,,"00025"
"Расчетно-кассовый центр Центрального банка по Ферганской области","150100, Ферганская область, г. Фергана, ул. Ал-Фаргоний, 9",,,"Ферганская область","base.uz",,,"00026"
"Расчетно-кассовый центр Центрального банка по Хорезмской области","220100, Хорезмская область, г. Ургенч, Тинчлик, 20",,,"Хорезмская область","base.uz",,,"00027"
"Пахтаабадский филиал Агробанка","171300, Андижанская область, Пахтаабадский район, г. Пахтаабад, ул. Амира Темура, 8",,,"Андижанская область","base.uz",,,"00031"
"Асакинский филиал Агробанка","170200, Андижанская область, Асакинский район, г. Асака, ул. А. Навои, 1",,,"Андижанская область","base.uz",,,"00033"
"Мархаматский филиал Агробанка","170800, Андижанская область, Мархаматский район, г. Мархамат, ул. Мухитдинова, 109",,,"Андижанская область","base.uz",,,"00035"
"Шахриханский филиал Агробанка","171600, Андижанская область, Шахриханский район, г. Шахрихан, проспект Шахриханский, 1",,,"Андижанская область","base.uz",,,"00037"
"Шахриханский филиал HAMKORBANK","171600, Андижанская область, Шахриханский район, г. Шахрихан, ул. Хамзы, 2",,,"Андижанская область","base.uz",,,"00039"
"Джалакудукский филиал Агробанка","171100, Андижанская область, Джалалкудукский район, ул. Узбекистанская, 41",,,"Андижанская область","base.uz",,,"00040"
"Ходжаабадский филиал Агробанка","Андижанская область, Ходжаабадский район, г. Ходжаабад, ул. А. Навои, 85",,,"Андижанская область","base.uz",,,"00042"
"Избасканский филиал Агробанка","171200, Андижанская область, Избасканский район, г. Пайтуг, ул. Е. Кабулова, 3",,,"Андижанская область","base.uz",,,"00045"
"Алтынкульский филиал Агробанка","171000, Андижанская область, Алтынкульский район, нп Алтынкуль, ул. Туркистан, 6",,,"Андижанская область","base.uz",,,"00049"
"Ханабадский филиал Узпромстройбанка","171500, Андижанская область, г.Ханабад, ул. Фарогат, 2",,,"Андижанская область","base.uz",,,"00051"
"Бузский филиал Агробанка","170400, Андижанская область, Бозский район, гп Боз, ул. А. Икрамова, 79",,,"Андижанская область","base.uz",,,"00053"
"Улугнорский филиал Агробанка","170900, Андижанская область, Улугнорский район, гп Ок-олтин, ул. Мустакиллик, 1",,,"Андижанская область","base.uz",,,"00055"
"Кургантепинский филиал Агробанка","170700, Андижанская область, Кургантепинский район, г. Кургантепа, ул. К. Юнусова, 8",,,"Андижанская область","base.uz",,,"00056"
"Кургантепинский филиал Кишлок курилиш банка","170700, Андижанская область, Кургантепинский район, г. Кургантепа, ул. Мукумий, 100",,,"Андижанская область","base.uz",,,"00058"
"Андижанский областной филиал Ипотека банка","170100, Андижанская область, г. Андижан, ул. Анисий, 1",,,"Андижанская область","base.uz",,,"00059"
"Андижанский филиал Агробанка","170600, Андижанская область, Андижанский район, г. Куйган-яр, ул. Ю. Юнусова, 23",,,"Андижанская область","base.uz",,,"00062"
"Булакбашинский филиал Агробанка","Андижанская область, Булакбашинский район, гп Булокбоши, ул. Ташкечик, 30-а",,,"Андижанская область","base.uz",,,"00064"
"Балыкчинский филиал Агробанка","170300, Андижанская область, Балыкчинский район, гп Баликчи, ул. Балыкчи, 9",,,"Андижанская область","base.uz",,,"00066"
"Филиал ""Истиклол"" Ипотека банка","170100, Андижанская область, г. Андижан, ул. Истиклол, 22",,,"Андижанская область","base.uz",,,"00068"
"Андижанский областной филиал Асака банка","170112, Андижанская область, г. Андижан, ул. Миллий тикланиш, 41",,,"Андижанская область","base.uz",,,"00069"
"Асакинский филиал HAMKORBANK","170200, Андижанская область, Асакинский район, г. Асака, ул. Карвонсарой, 64",,,"Андижанская область","base.uz",,,"00070"
"Кургантепинский филиал HAMKORBANK","170711, Андижанская область, Кургантепинский район, г. Кургантепа, ул. Мустакиллик, 98",,,"Андижанская область","base.uz",,,"00071"
"Ходжаабадский филиал HAMKORBANK","171403, Андижанская область, Ходжаабадский район, г. Ходжаабад, ул. Узбекистанская, 25",,,"Андижанская область","base.uz",,,"00072"
"Асакинский филиал Асака банка","170200, Андижанская область, Асакинский район, г. Асака, ул. Г. Ёкубова, 14",,,"Андижанская область","base.uz",,,"00073"
"Андижанское отделение Узнацбанка","170121, Андижанская область, г. Андижан, проспект А. Навои, 39",,,"Андижанская область","base.uz",,,"00074"
"Андижанский региональный филиал Узпромстройбанка","170119, Андижанская область, г. Андижан, ул. Бобуршох, 36",,,"Андижанская область","base.uz",,,"00075"
"Бунёдкорский филиал Узпромстройбанка","170100, Андижанская область, г. Андижан, проспект Амира Темура, 24",,,"Андижанская область","base.uz",,,"00076"
"Андижанский областной территориальный филиал Агробанка","Андижанская область, г.Андижан, ул. Пушкина, 47",,,"Андижанская область","base.uz",,,"00077"
"Андижанский областной филиал Микрокредитбанка","170120, Андижанская область, г. Андижан, ул. Миллий тикланиш , 48",,,"Андижанская область","base.uz",,,"00078"
"Нодирабегимский филиал HAMKORBANK","170102, Андижанская область, г. Андижан, ул. Базар, 2",,,"Андижанская область","base.uz",,,"00079"
"Андижанский филиал Савдогар банка","173000, Андижанская область, г. Андижан, ул. Байналминал, 2",,,"Андижанская область","base.uz",,,"00081"
"Андижанский региональный филиал Кишлок курилиш банка","170102, Андижанская область, г. Андижан, ул. А. Фитрата, 239",,,"Андижанская область","base.uz",,,"00082"
"Головной офис HAMKORBANK","170111, Андижанская область, г. Андижан, ул. Бобуршох, 85",,,"Андижанская область","base.uz",,,"00083"
"Бухарское отделение Узнацбанка","200114, Бухарская область, г. Бухара, ул. М. Икбола, 3",,,"Бухарская область","base.uz",,,"00084"
"Караулбазарский филиал Узпромстройбанка","200715, Бухарская область, Караулбазарский район, г. Караулбазар, ул. А. Навои, 7",,,"Бухарская область","base.uz",,,"00085"
"Бухарский региональный филиал Узпромстройбанка","200107, Бухарская область, г. Бухара, ул. Накшбанда, 257А",,,"Бухарская область","base.uz",,,"00086"
"Каганский филиал Кишлок курилиш банка","200700, Бухарская область, г. Каган, ул. Дустлик, 4",,,"Бухарская область","base.uz",,,"00087"
"Бухарский областной филиал Ипотека банка","200100, Бухарская область, г. Бухара, ул. Икбола, 10",,,"Бухарская область","base.uz",,,"00088"
"Бухарский областной территориальный филиал Агробанка","200113, Бухарская область, г.Бухара, И. Муминова, 29/1",,,"Бухарская область","base.uz",,,"00089"
"Алатский филиал Агробанка","200200, Бухарская область, Алатский район, г. Алат, ул. Шифокорлар, 20",,,"Бухарская область","base.uz",,,"00090"
"Вабкентский филиал Агробанка","210800, Бухарская область, Вабкентский район, г. Вабкент, ул. Ф. Хужаева, 20-а",,,"Бухарская область","base.uz",,,"00091"
"Гиждуванский филиал Агробанка","200500, Бухарская область, Гиждуванский район, г. Гиждуван, ул. С. Ёдгорова, 1",,,"Бухарская область","base.uz",,,"00092"
"Шафирканский филиал Агробанка","201100, Бухарская область, Шафирканский район, г. Шафиркан, ул. Мустакиллик, 11",,,"Бухарская область","base.uz",,,"00093"
"Каракульский филиал Агробанка","200800, Бухарская область, Каракульский район, г. Каракуль, ул. А. Икрамова, 5",,,"Бухарская область","base.uz",,,"00094"
"Ромитанский филиал Агробанка","201000, Бухарская область, Ромитанский район, г. Ромитан, ул. Шафигулина, 6",,,"Бухарская область","base.uz",,,"00095"
"Жондорский филиал Агробанка","200600, Бухарская область, Жондорский район, гп Жондор, ул. М. Таробий, 43",,,"Бухарская область","base.uz",,,"00096"
"Бухарский филиал Агробанка","200400, Бухарская область, Бухарский район, г. Галлаасия, ул. М. Мухсина, 56",,,"Бухарская область","base.uz",,,"00097"
"Пешкунский филиал Агробанка","201200, Бухарская область, Пешкунский район, ул. Мустакиллик, 1",,,"Бухарская область","base.uz",,,"00098"
"Янгибазарский филиал Микрокредитбанка","201200, Бухарская область, Пешкунский район, гп Янгибозор, ул. Янгибазар, 26",,,"Бухарская область","base.uz",,,"00100"
"Шафирканский филиал Микрокредитбанка","Бухарская область, Шафирканский район, г. Шафиркан, ул. Амира Темура, 1",,,"Бухарская область","base.uz",,,"00101"
"Гиждуванский филиал Микрокредитбанка","200500, Бухарская область, Гиждуванский район, г. Гиждуван, ул. Алпомиш, 23",,,"Бухарская область","base.uz",,,"00104"
"Жондорский филиал Микрокредитбанка","200600, Бухарская область, Жондорский район, гп Жондор, ул. Махмуда Таробий, 50",,,"Бухарская область","base.uz",,,"00108"
"Бухарский областной филиал Микрокредитбанка","Бухарская область, г. Бухара, ул. А. Гиждувоний, 21",,,"Бухарская область","base.uz",,,"00109"
"Ромитанский филиал Микрокредитбанка","201000, Бухарская область, Ромитанский район, г. Ромитан, ул. Чорикулбой, 28",,,"Бухарская область","base.uz",,,"00110"
"Бухарский филиал Туронбанка","200113, Бухарская область, г. Бухара, ул. И. Муминова, 29/1",,,"Бухарская область","base.uz",,,"00111"
"Бухарский филиал Савдогар банка","200100, Бухарская область, г. Бухара, ул. Бухара, 1",,,"Бухарская область","base.uz",,,"00112"
"Бухарский региональный филиал Кишлок курилиш банка","200117, Бухарская область, г. Бухара, ул. М. Икбола, 3\1",,,"Бухарская область","base.uz",,,"00115"
"Бухарский областной филиал Народного банка","200100, Бухарская область, г. Бухара, ул. М. Икбола, 8",,,"Бухарская область","base.uz",,,"00116"
"Ф. Хужаевский филиал Народного банка","Бухарская область, г. Бухара, ул. Хужануробод, 18",,,"Бухарская область","base.uz",,,"00118"
"Филиал ""Сардор"" Ипотека банка","200100, Бухарская область, г. Бухара, ул. Икромий, 6",,,"Бухарская область","base.uz",,,"00119"
"Бухарский областной филиал Асака банка","200104, Бухарская область, г. Бухара, ул. Б.Накшбанда, 168/Б",,,"Бухарская область","base.uz",,,"00120"
"Джизакское отделение Узнацбанка","Джизакская область, г. Джизак, маҳалля Сайилжойи, проспект Шарофа Рашидова, 20",,,"Джизакская область","base.uz",,,"00121"
"Джизакский областной филиал Ипотека банка","130100, Джизакская область, г. Джизак, ул. Шарофа Рашидова, 72",,,"Джизакская область","base.uz",,,"00122"
"Джизакский филиал Агробанка","131100, Джизакская область, Джизакский район, гп Учтепа, ул. Пахтакор, 4",,,"Джизакская область","base.uz",,,"00123"
"Арнасайский филиал Агробанка","130200, Джизакская область, Арнасайский район, гп Голиблар, ул. Халклар дустлиги, 1",,,"Джизакская область","base.uz",,,"00124"
"Зарбдарский филиал Агробанка","130600, Джизакская область, Зарбдарский район, гп Зарбдар, ул. Янгимахалла, 1",,,"Джизакская область","base.uz",,,"00125"
"Джизакский областной территориальный филиал Агробанка","130100, Джизакская область, г. Джизак, ул. Байналминалчилар, 18",,,"Джизакская область","base.uz",,,"00126"
"Пахтакорский филиал Агробанка","130900, Джизакская область, Пахтакорский район, г. Пахтакор, ул. Жабборова, 23",,,"Джизакская область","base.uz",,,"00127"
"Галлааральский филиал Агробанка","130400, Джизакская область, Галляаральский район, г. Галляарал, ул. Мустакиллик, 27",,,"Джизакская область","base.uz",,,"00128"
"Дустликский филиал Агробанка","130500, Джизакская область, Дустликский район, г. Дустлик, ул. Шарофа Рашидова, 1",,,"Джизакская область","base.uz",,,"00129"
"Мирзачульский филиал Агробанка","130300, Джизакская область, Мирзачульский район, г. Гагарин, ул. Оналбоева, 1",,,"Джизакская область","base.uz",,,"00130"
"Заминский филиал Агробанка","130804, Джизакская область, Зааминский район, гп Заамин, ул. Мустакиллик, 54",,,"Джизакская область","base.uz",,,"00131"
"Бахмальский филиал Агробанка","131000, Джизакская область, Бахмальский район, гп Усмат, ул. 9 мая, 5",,,"Джизакская область","base.uz",,,"00132"
"Фаришский филиал Агробанка","131200, Джизакская область, Фаришский район, гп Янгикишлак, ул. Э. Ниятова, 4",,,"Джизакская область","base.uz",,,"00133"
"Зафарабадский филиал Агробанка","130703, Джизакская область, Зафарабадский район, гп Зафарабад, ул. Мустакиллик, 2",,,"Джизакская область","base.uz",,,"00134"
"Джизакский областной филиал Микрокредитбанка","130100, Джизакская область, г. Джизак, ул. Сайилгох , 60",,,"Джизакская область","base.uz",,,"00135"
"Дустликский филиал Савдогар банка","130500, Джизакская область, Дустликский район, г. Дустлик, ул. Курувчилар, 6",,,"Джизакская область","base.uz",,,"00138"
"Джизакский региональный филиал Кишлок курилиш банка","130100, Джизакская область, г.Джизак, махалля Кутарма, ул. Тукимачилар, 2-A",,,"Джизакская область","base.uz",,,"00139"
"Джизакский областной филиал Асака банка","130100, Джизакская область, г. Джизак, ул. Шарофа Рашидова, 115",,,"Джизакская область","base.uz",,,"00140"
"Галлааральский филиал Микрокредитбанка","130400, Джизакская область, Галляаральский район, г. Галляарал, ул. Мустакиллик, 38",,,"Джизакская область","base.uz",,,"00142"
"Заминский филиал Микрокредитбанка","130800, Джизакская область, Зааминский район, гп Заамин, ул. Мустакиллик, 76",,,"Джизакская область","base.uz",,,"00145"
"Зарбдарский филиал Микрокредитбанка","130600, Джизакская область, Зарбдарский район, гп Зарбдар, ул. С. Нурбаева, 25",,,"Джизакская область","base.uz",,,"00149"
"Каршинское отделение Узнацбанка","Кашкадарьинская область, г. Карши, ул. Узбекистанская, 219",,,"Кашкадарьинская область","base.uz",,,"00150"
"Кашкадарьинский областной территориальный филиал Агробанка","180100, Кашкадарьинская область, г. Карши, ул. А. Навои, 2",,,"Кашкадарьинская область","base.uz",,,"00151"
"Кашкадарьинский областной филиал Микрокредитбанка","180118, Кашкадарьинская область, г. Карши, ул. Сохибкор, 4",,,"Кашкадарьинская область","base.uz",,,"00152"
"Каршинский филиал Савдогар банка","180100, Кашкадарьинская область, г. Карши, ул. А. Юлбарисова, 2",,,"Кашкадарьинская область","base.uz",,,"00154"
"Кашкадарьинский региональный филиал Кишлок курилиш банка","180100, Кашкадарьинская область, г. Карши, ул. Узбекистанская, 44",,,"Кашкадарьинская область","base.uz",,,"00155"
"Кукдалинский филиал Кишлок курилиш банка","181214, Кашкадарьинская область, Чиракчинский район, Кукдала МФЙ, поселок Кукдала",,,"Кашкадарьинская область","base.uz",,,"00156"
"Гузарский филиал Агробанка","180300, Кашкадарьинская область, Гузарский район, г. Гузар, ул. Мустакиллик, 10",,,"Кашкадарьинская область","base.uz",,,"00157"
"Дехканабадский филиал Агробанка","180405, Кашкадарьинская область, Дехканабадский район, гп Корашина, ул. Мирзо Улугбека, 7",,,"Кашкадарьинская область","base.uz",,,"00158"
"Камашинский филиал Агробанка","180500, Кашкадарьинская область, Камашинский район, г. Камаши, ул. Амира Темура, 47",,,"Кашкадарьинская область","base.uz",,,"00160"
"Камашинский филиал Микрокредитбанка","180500, Кашкадарьинская область, Камашинский район, г. Камаши, ул. Нодиры, 18",,,"Кашкадарьинская область","base.uz",,,"00161"
"Касанский филиал Агробанка","Кашкадарьинская область, Касанский район, г. Касан, ул. Узбекистанская, 1",,,"Кашкадарьинская область","base.uz",,,"00162"
"Касанский филиал Микрокредитбанка","180803, Кашкадарьинская область, Касанский район, г. Касан, ул. Шарофа Рашидова, 102",,,"Кашкадарьинская область","base.uz",,,"00163"
"Шахрисабзский филиал Ипотека банка","Кашкадарьинская область, Шахрисабзский район, г. Шахрисабз, ул. Ипак йули, 3",,,"Кашкадарьинская область","base.uz",,,"00165"
"Шахрисабзский филиал Агробанка","Кашкадарьинская область, Шахрисабзский район, г. Шахрисабз, ул. Буюк Ипак йули, 2",,,"Кашкадарьинская область","base.uz",,,"00166"
"Шахрисабзский филиал Микрокредитбанка","Кашкадарьинская область, Шахрисабзский район, г. Шахрисабз, ул. Буюк Ипак йули, 5",,,"Кашкадарьинская область","base.uz",,,"00167"
"Яккабагский филиал Агробанка","Кашкадарьинская область, Яккабагский район, г. Яккабаг, ул. Амира Темура, 49",,,"Кашкадарьинская область","base.uz",,,"00169"
"Яккабагский филиал Кишлок курилиш банка","Кашкадарьинская область, Яккабагский район, г. Яккабаг, ул. Фурката, 2",,,"Кашкадарьинская область","base.uz",,,"00171"
"Каршинский филиал Агробанка","180200, Кашкадарьинская область, Каршинский район, г. Бешкент, ул. Хамзы, 1",,,"Кашкадарьинская область","base.uz",,,"00172"
"Бешкентский филиал Микрокредитбанка","180200, Кашкадарьинская область, Каршинский район, г. Бешкент, ул. Мустакиллик, 27",,,"Кашкадарьинская область","base.uz",,,"00173"
"Чиракчинский филиал Агробанка","Кашкадарьинская область, Чиракчинский район, г. Чиракчи, ул. Ахунбабаева, 2",,,"Кашкадарьинская область","base.uz",,,"00174"
"Чиракчинский филиал Микрокредитбанка","Кашкадарьинская область, Чиракчинский район, г. Чиракчи, ул. Ахунбабаева, 40",,,"Кашкадарьинская область","base.uz",,,"00175"
"Китабский филиал Агробанка","180700, Кашкадарьинская область, Китабский район, г. Китаб, ул. Буюк Ипак йули, 18",,,"Кашкадарьинская область","base.uz",,,"00176"
"Китабский филиал Микрокредитбанка","181301, Кашкадарьинская область, Китабский район, г. Китаб, ул. Журабекова, 54",,,"Кашкадарьинская область","base.uz",,,"00177"
"Касбинский филиал Агробанка","180600, Кашкадарьинская область, Касбинский район, гп Муглон, ул. Амира Темура, 7",,,"Кашкадарьинская область","base.uz",,,"00179"
"Нишанский филиал Агробанка","181100, Кашкадарьинская область, Нишанский район, г. Янги-Нишан, ул. Нодирабегим, 3",,,"Кашкадарьинская область","base.uz",,,"00181"
"Янги-Нишанский филиал Микрокредитбанка","180221, Кашкадарьинская область, Нишанский район, г. Янги-Нишан, ул. Лахутий, 12",,,"Кашкадарьинская область","base.uz",,,"00182"
"Миришкорский филиал Агробанка","180000, Кашкадарьинская область, Миришкорский район, гп Янги Миришкор, ул. Мустакиллик, 5",,,"Кашкадарьинская область","base.uz",,,"00184"
"Мубарекский филиал Узпромстройбанка","Кашкадарьинская область, Мубарекский район, г. Мубарек, ул. Занжирсарай, 22/3",,,"Кашкадарьинская область","base.uz",,,"00186"
"Мубарекский филиал Агробанка","Кашкадарьинская область, Мубарекский район, г. Мубарек, ул. Занжирсарай, 22/4",,,"Кашкадарьинская область","base.uz",,,"00187"
"Кашкадарьинский областной филиал Ипотека банка","180100, Кашкадарьинская область, г. Карши, ул. Мустакиллик, 49",,,"Кашкадарьинская область","base.uz",,,"00190"
"Шахрисабзский филиал Узнацбанка","Кашкадарьинская область, Шахрисабзский район, г. Шахрисабз, ул. Ипак Йули, 100",,,"Кашкадарьинская область","base.uz",,,"00191"
"Каршинский филиал Туронбанка","180103, Кашкадарьинская область, г. Карши, ул. Комилон, 28",,,"Кашкадарьинская область","base.uz",,,"00192"
"Кашкадарьинский областной филиал Асака банка","180000, Кашкадарьинская область, г. Карши, ул. Мустакиллик, 32-A",,,"Кашкадарьинская область","base.uz",,,"00194"
"Навоийское отделение Узнацбанка","210100, Навоийская область, г. Навои, ул. Ибн Сина, 14",,,"Навоийская область","base.uz",,,"00196"
"Навоийский областной территориальный филиал Агробанка","210100, Навоийская область, г. Навои, ул. Меъморлар, 104",,,"Навоийская область","base.uz",,,"00197"
"Навоийский областной филиал Микрокредитбанка","210100, Навоийская область, г. Навои, ул. А. Навои, 29",,,"Навоийская область","base.uz",,,"00198"
"Навоийский филиал Ипак Йули банка","220100, Навоийская область, г. Навои, ул. Галаба, 206",,,"Навоийская область","base.uz",,,"00199"
"Навоийский филиал Туронбанка","210100, Навоийская область, г. Навои, ул. Низомий, 28",,,"Навоийская область","base.uz",,,"00200"
"Навоийский областной филиал Савдогар банка","210109, Навоийская область, г. Навои, ул. Меъморлар, 83",,,"Навоийская область","base.uz",,,"00201"
"Навоийский региональный филиал Кишлок курилиш банка","210100, Навоийская область, г. Навои, проспект Галаба, 149-A",,,"Навоийская область","base.uz",,,"00202"
"Зарафшанский филиал Ипотека банка","Навоийская область, г. Зарафшан, ул. Бахор, 2-й микрорайон",,,"Навоийская область","base.uz",,,"00203"
"Зарафшанский филиал Узнацбанка","Навоийская область, г. Зарафшан, ул. Амира Темура, 43/7",,,"Навоийская область","base.uz",,,"00204"
"Навоийский филиал Ипотека банка","210100, Навоийская область, г. Навои, ул. Меъморлар, 104а",,,"Навоийская область","base.uz",,,"00205"
"Навоийский областной филиал Асака банка","210100, Навоийская область, г. Навои, ул. Амира Темура, 2-A",,,"Навоийская область","base.uz",,,"00206"
"Навоийский региональный филиал Узпромстройбанка","210100, Навоийская область, г. Навои, ул. Меъморлар, 7",,,"Навоийская область","base.uz",,,"00207"
"Канимехский филиал Агробанка","210500, Навоийская область, Канимехский район, гп Канимех, ул. Абая, 14",,,"Навоийская область","base.uz",,,"00209"
"Карманинский филиал Агробанка","210600, Навоийская область, Карманинский район, гп Кармана, Янгиарык КФЙ",,,"Навоийская область","base.uz",,,"00210"
"Карманинский филиал Микрокредитбанка","210609, Навоийская область, Карманинский район, гп Кармана, ул. Кармана, 28",,,"Навоийская область","base.uz",,,"00211"
"Кызылтепинский филиал Агробанка","210400, Навоийская область, Кызылтепинский район, г. Кызылтепа, ул. Узбекистанская, 5",,,"Навоийская область","base.uz",,,"00212"
"Кызылтепинский филиал Микрокредитбанка","210400, Навоийская область, Кызылтепинский район, г. Кызылтепа, проспект Узбекистанский, 6",,,"Навоийская область","base.uz",,,"00213"
"Нуратинский филиал Агробанка","Навоийская область, Нуратинский район, г. Нурата, ул. Амира Темура, 10",,,"Навоийская область","base.uz",,,"00214"
"Тамдынский филиал Агробанка","210800, Навоийская область, Тамдынский район, гп Томдибулок, ул. Навруз, 15",,,"Навоийская область","base.uz",,,"00216"
"Навбахорский филиал Агробанка","210200, Навоийская область, Навбахорский район, нп Бешрабад, ул. Бобуршох, 10",,,"Навоийская область","base.uz",,,"00217"
"Хатырчинский филиал Агробанка","211000, Навоийская область, Хатырчинский район, г. Янгирабод, ул. Пулканшоир, 19",,,"Навоийская область","base.uz",,,"00219"
"Наманганское отделение Узнацбанка","160127, Наманганская область, г. Наманган, ул. Дустлик, 2",,,"Наманганская область","base.uz",,,"00222"
"Наманганский областной филиал Ипотека банка","160100, Наманганская область, г. Наманган, ул. А. Навои, 63",,,"Наманганская область","base.uz",,,"00223"
"Наманганский региональный филиал Узпромстройбанка","160100, Наманганская область, г. Наманган, проспект Дустлик, 19",,,"Наманганская область","base.uz",,,"00224"
"Наманганский областной территориальный филиал Агробанка","160100, Наманганская область, г. Наманган, ул. Дустлик, 3",,,"Наманганская область","base.uz",,,"00225"
"Наманганский филиал Туронбанка","160133, Наманганская область, г. Наманган, ул. Ахунбабаева, 68",,,"Наманганская область","base.uz",,,"00226"
"Наманганский филиал Савдогар банка","160136, Наманганская область, г. Наманган, ул. Ибрат, 26",,,"Наманганская область","base.uz",,,"00227"
"Наманганский региональный филиал Кишлок курилиш банка","160108, Наманганская область, г. Наманган, ул. А. Навои, 70 a",,,"Наманганская область","base.uz",,,"00229"
"Наманганский областной филиал Асака банка","116008, Наманганская область, г. Наманган, ул. А. Навои, 27",,,"Наманганская область","base.uz",,,"00231"
"Мингбулакский филиал Агробанка","160200, Наманганская область, Мингбулакский район, гп Джумашуй, ул. Ойбека, 2",,,"Наманганская область","base.uz",,,"00232"
"Джумашуйский филиал Микрокредитбанка","160200, Наманганская область, Мингбулакский район, гп Джумашуй, ул. Озодлик, 26",,,"Наманганская область","base.uz",,,"00233"
"Касансайский филиал Агробанка","160300, Наманганская область, Касансайский район, г. Касансай, ул. А. Навои, 122",,,"Наманганская область","base.uz",,,"00234"
"Нарынский филиал Агробанка","160400, Наманганская область, Нарынский район, г. Хаккулабад, ул. Беруний, 8",,,"Наманганская область","base.uz",,,"00236"
"Папский филиал Агробанка","160500, Наманганская область, Папский район, г. Пап, ул. Дустлик, 35",,,"Наманганская область","base.uz",,,"00238"
"Папский филиал Микрокредитбанка","160500, Наманганская область, Папский район, г. Пап, ул. Э. Ёндоша, 15",,,"Наманганская область","base.uz",,,"00239"
"Папский филиал Кишлок курилиш банка","160500, Наманганская область, Папский район, г. Пап, ул. Дустлик, 45",,,"Наманганская область","base.uz",,,"00240"
"Туракурганский филиал Агробанка","160800, Наманганская область, Туракурганский район, г. Туракурган, ул. Ал Фаргоний, 4",,,"Наманганская область","base.uz",,,"00241"
"Уйчинский филиал Агробанка","160900, Наманганская область, Уйчинский район, гп Уйчи, ул. А. Навои, 5",,,"Наманганская область","base.uz",,,"00244"
"Учкурганский филиал Агробанка","160900, Наманганская область, Учкурганский район, г. Учкурган, ул. Дустлик, 28",,,"Наманганская область","base.uz",,,"00246"
"Учкурганский филиал Кишлок курилиш банка","160900, Наманганская область, Учкурганский район, г. Учкурган, ул. 3-тупик Дустлик, 1",,,"Наманганская область","base.uz",,,"00248"
"Чустский филиал Агробанка","161200, Наманганская область, Чустский район, г. Чуст, ул. Суфизода, 12",,,"Наманганская область","base.uz",,,"00249"
"Чустский филиал Микрокредитбанка","161100, Наманганская область, Чустский район, г. Чуст, ул. М. Фаёзова, 4",,,"Наманганская область","base.uz",,,"00250"
"Янгикурганский филиал Агробанка","160600, Наманганская область, Янгикурганский район, гп Янгикурган, ул. Мустакиллик, 1",,,"Наманганская область","base.uz",,,"00251"
"Наманганский филиал Агробанка","160600, Наманганская область, Наманганский район, гп Ташбулак, ул. Мустакиллик, 5",,,"Наманганская область","base.uz",,,"00253"
"Ташбулакский филиал Микрокредитбанка","160600, Наманганская область, Наманганский район, гп Ташбулак, ул. Мустакиллик, 3",,,"Наманганская область","base.uz",,,"00254"
"Чартакский филиал Агробанка","161000, Наманганская область, Чартакский район, г. Чартак, ул. А. Навои, 5",,,"Наманганская область","base.uz",,,"00256"
"Давлатабадский филиал Агробанка","160116, Наманганская область, г. Наманган, ул. 50 лет Победы, 19",,,"Наманганская область","base.uz",,,"00259"
"Наманганский областной филиал Микрокредитбанка","160030, Наманганская область, г. Наманган, ул. Кукимбой, 7",,,"Наманганская область","base.uz",,,"00260"
"Куксарайский филиал Ипотека банка","140100, Самаркандская область, г. Самарканд, ул. Кук-сарой, 1",,,"Самаркандская область","base.uz",,,"00262"
"Самаркандский областной филиал Асака банка","140157, Самаркандская область, г. Самарканд, площадь Кук-сарой, 7",,,"Самаркандская область","base.uz",,,"00264"
"Акдарьинский филиал Агробанка","141000, Самаркандская область, Акдарьинский район, гп Лаиш, ул. Амира Темура, 38",,,"Самаркандская область","base.uz",,,"00265"
"Лаишский филиал Микрокредитбанка","141000, Самаркандская область, Акдарьинский район, гп Лаиш, ул. Амира Темура, 34",,,"Самаркандская область","base.uz",,,"00266"
"Нарпайский филиал Агробанка","141200, Самаркандская область, Нарпайский район, г. Акташ, ул. Амира Темура, 4",,,"Самаркандская область","base.uz",,,"00267"
"Джамбайский филиал Агробанка","140163, Самаркандская область, Джамбайский район, г. Джамбай, ул. Арчазор, 1",,,"Самаркандская область","base.uz",,,"00270"
"Пастдаргомский филиал Агробанка","140500, Самаркандская область, Пастдаргомский район, г. Джума, ул. С. Урдашева, 16",,,"Самаркандская область","base.uz",,,"00273"
"Пайшанбинский филиал Агробанка","140163, Самаркандская область, Каттакурганский район, гп Пайшанба, ул. А. Навои, 2-а",,,"Самаркандская область","base.uz",,,"00275"
"Самаркандское отделение Узнацбанка","140105, Самаркандская область, г. Самарканд, ул. Мирзо Улугбека, 1",,,"Самаркандская область","base.uz",,,"00278"
"Самаркандский областной территориальный филиал Агробанка","140157, Самаркандская область, г. Самарканд, площадь Кук-сарой, 4",,,"Самаркандская область","base.uz",,,"00279"
"Сиёбский филиал Агробанка","140100, Самаркандская область, г. Самарканд, ул. Истикбол, 2-а",,,"Самаркандская область","base.uz",,,"00280"
"Самаркандский областной филиал Микрокредитбанка","140134, Самаркандская область, г. Самарканд, ул. Лутфий, 15/17",,,"Самаркандская область","base.uz",,,"00281"
"Самаркандский филиал Туронбанка","140154, Самаркандская область, г. Самарканд, ул. Мирзо Улугбека, 62-а",,,"Самаркандская область","base.uz",,,"00282"
"Региональный филиал ""Умар"" Ипак Йули банка","140120, Самаркандская область, г. Самарканд, ул. Дагбит, 14",,,"Самаркандская область","base.uz",,,"00283"
"Самаркандский областной филиал Савдогар банка","140161, Самаркандская область, г. Самарканд, ул. Мустакиллик, 59 а",,,"Самаркандская область","base.uz",,,"00286"
"Самаркандский региональный филиал Кишлок курилиш банка","140161, Самаркандская область, г. Самарканд, центр Саттепо, 148-A",,,"Самаркандская область","base.uz",,,"00287"
"Булунгурский филиал Микрокредитбанка","140200, Самаркандская область, Булунгурский район, г. Булунгур, ул. Мустакиллик, 8",,,"Самаркандская область","base.uz",,,"00289"
"Булунгурский филиал Агробанка","140200, Самаркандская область, Булунгурский район, г. Булунгур, ул. Узбекистанская, 82",,,"Самаркандская область","base.uz",,,"00290"
"Нурабадский филиал Агробанка","141100, Самаркандская область, Нурабадский район, г. Нурабад, ул. Амира Темура, 4",,,"Самаркандская область","base.uz",,,"00291"
"Пахтачийский филиал Агробанка","140600, Самаркандская область, Пахтачийский район, гп Зиатдин, ул. М. Раимкулова, 10",,,"Самаркандская область","base.uz",,,"00297"
"Зиявуддинский филиал Микрокредитбанка","140600, Самаркандская область, Пахтачийский район, гп Зиатдин, ул. Истиклол, 67",,,"Самаркандская область","base.uz",,,"00298"
"Ургутский филиал Агробанка","141600, Самаркандская область, Ургутский район, г. Ургут, ул. А. Навои, 100",,,"Самаркандская область","base.uz",,,"00300"
"Ургутский филиал Микрокредитбанка","141600, Самаркандская область, Ургутский район, г. Ургут, ул. Пачван, 3",,,"Самаркандская область","base.uz",,,"00301"
"Ургутский филиал Савдогар банка","140600, Самаркандская область, Ургутский район, г. Ургут, проспект А. Навои, 102",,,"Самаркандская область","base.uz",,,"00303"
"Улугбекский филиал Савдогар банка","140300, Самаркандская область, Самаркандский район, ул. Пардаев, 7",,,"Самаркандская область","base.uz",,,"00304"
"Гузалкентский филиал Агробанка","140504, Самаркандская область, Пастдаргомский район, аллея Амира Темура, 4",,,"Самаркандская область","base.uz",,,"00307"
"Иштыханский филиал Агробанка","140700, Самаркандская область, Иштыханский район, г. Иштыхан, аллея Амира Темура, 1",,,"Самаркандская область","base.uz",,,"00309"
"Иштыханский филиал Савдогар банка","140700, Самаркандская область, Иштыханский район, г. Иштыхан, ул. Самарканд, 47",,,"Самаркандская область","base.uz",,,"00311"
"Самаркандский областной филиал Ипотека банка","140102, Самаркандская область, г. Самарканд, ул. Беруний, 31",,,"Самаркандская область","base.uz",,,"00312"
"Кушрабадский филиал Агробанка","140900, Самаркандская область, Кошрабадский район, гп Кушрабад, ул. Г. Гуляма, 34",,,"Самаркандская область","base.uz",,,"00313"
"Каттакурганский филиал Микрокредитбанка","Самаркандская область, г. Каттакурган, ул. А. Навои, 189",,,"Самаркандская область","base.uz",,,"00315"
"Каттакурганский филиал Кишлок курилиш банка","Самаркандская область, г. Каттакурган, ул. Амира Темура, 6",,,"Самаркандская область","base.uz",,,"00316"
"Самаркандский региональный филиал Узпромстройбанка","140105, Самаркандская область, г. Самарканд, ул. Мирзо Бабура, 3А",,,"Самаркандская область","base.uz",,,"00317"
"Челакский филиал Агробанка","141324, Самаркандская область, Пайарыкский район, ул. Т. Манонова, 3",,,"Самаркандская область","base.uz",,,"00318"
"Тайлякский филиал Агробанка","141500, Самаркандская область, Тайлякский район, гп Тайлок, ул. Амира Темура, 14",,,"Самаркандская область","base.uz",,,"00321"
"Термезское отделение Узнацбанка","Сурхандарьинская область, г. Термез, ул. Ат-Термизий, 1",,,"Сурхандарьинская область","base.uz",,,"00324"
"Сурхандарьинский областной территориальный филиал Агробанка","Сурхандарьинская область, г. Термез, ул. А. Навои, 9",,,"Сурхандарьинская область","base.uz",,,"00325"
"Сурхандарьинский областной филиал Микрокредитбанка","190112, Сурхандарьинская область, г. Термез, ул. Н. Цуранова, 39-Б",,,"Сурхандарьинская область","base.uz",,,"00326"
"Термезский филиал Туронбанка","190100, Сурхандарьинская область, г. Термез, ул. Ф. Хужаева, 32",,,"Сурхандарьинская область","base.uz",,,"00328"
"Сурхандарьинский региональный филиал Кишлок курилиш банка","Сурхандарьинская область, г. Термез, ул. Ат-Термезий, 11",,,"Сурхандарьинская область","base.uz",,,"00330"
"Байсунский филиал Агробанка","190400, Сурхандарьинская область, Байсунский район, г. Байсун, ул. Алмазар, 42",,,"Сурхандарьинская область","base.uz",,,"00331"
"Джаркурганский филиал Агробанка","190600, Сурхандарьинская область, Джаркурганский район, г. Джаркурган, ул. Узбекистанская, 6",,,"Сурхандарьинская область","base.uz",,,"00332"
"Джаркурганский филиал Микрокредитбанка","190600, Сурхандарьинская область, Джаркурганский район, г. Джаркурган, ул. Базар, 2",,,"Сурхандарьинская область","base.uz",,,"00333"
"Музрабадский филиал Агробанка","Сурхандарьинская область, Музрабадский район, гп Халкабад, ул. Шарофа Рашидова, 2",,,"Сурхандарьинская область","base.uz",,,"00334"
"Музрабадский филиал Микрокредитбанка","191300, Сурхандарьинская область, Музрабадский район, гп Халкабад, ул. Ш. Бобоева, 14",,,"Сурхандарьинская область","base.uz",,,"00335"
"Шерабадский филиал Агробанка","191400, Сурхандарьинская область, Шерабадский район, г. Шерабад, ул. Мустакиллик, 111",,,"Сурхандарьинская область","base.uz",,,"00337"
"Шерабадский филиал Микрокредитбанка","191400, Сурхандарьинская область, Шерабадский район, г. Шерабад, ул. Мустакиллик, 64",,,"Сурхандарьинская область","base.uz",,,"00338"
"Шурчинский филиал Агробанка","191500, Сурхандарьинская область, Шурчинский район, г. Шурчи, ул. Мустакиллик, 98",,,"Сурхандарьинская область","base.uz",,,"00339"
"Узунский филиал Агробанка","191000, Сурхандарьинская область, Узунский район, гп Узун, ул. Ёшлик, 12",,,"Сурхандарьинская область","base.uz",,,"00341"
"Узунский филиал Микрокредитбанка","Сурхандарьинская область, Узунский район, аллея памяти и почести",,,"Сурхандарьинская область","base.uz",,,"00342"
"Ангорский филиал Агробанка","Сурхандарьинская область, Ангорский район, гп Ангор, ул. Ал-Термизий, 64",,,"Сурхандарьинская область","base.uz",,,"00343"
"Ангорский филиал Микрокредитбанка","Сурхандарьинская область, Ангорский район, гп Ангор, ул. Ат-Термизий, 5",,,"Сурхандарьинская область","base.uz",,,"00344"
"Кизирикский филиал Агробанка","190800, Сурхандарьинская область, Кизирикский район, ул. Мустакиллик, 3",,,"Сурхандарьинская область","base.uz",,,"00345"
"Кизирикский филиал Микрокредитбанка","191407, Сурхандарьинская область, Кизирикский район, центр Сариккурган",,,"Сурхандарьинская область","base.uz",,,"00346"
"Кумкурганский филиал Агробанка","190900, Сурхандарьинская область, Кумкурганский район, г. Кумкурган, ул. Узбекистанская, 1",,,"Сурхандарьинская область","base.uz",,,"00347"
"Кумкурганский филиал Микрокредитбанка","190900, Сурхандарьинская область, Кумкурганский район, г. Кумкурган, Оксой махалля",,,"Сурхандарьинская область","base.uz",,,"00348"
"Термезский филиал Агробанка","191200, Сурхандарьинская область, Термезский район, гп Учкизил, махалля Янги хаёт, 1",,,"Сурхандарьинская область","base.uz",,,"00349"
"Учкизилский филиал Микрокредитбанка","191200, Сурхандарьинская область, Термезский район, гп Учкизил, Учкизил кургони",,,"Сурхандарьинская область","base.uz",,,"00350"
"Алтынсайский филиал Агробанка","190700, Сурхандарьинская область, Алтынсайский район, Мирзо Улугбек СФУ, 1",,,"Сурхандарьинская область","base.uz",,,"00351"
"Шаргунский филиал Узпромстройбанка","191014, Сурхандарьинская область, Сариасийский район, ул. Шахтёрлар, 29",,,"Сурхандарьинская область","base.uz",,,"00354"
"Сариасийский филиал Агробанка","Сурхандарьинская область, Сариасийский район, гп Сариасия, ул. Мирзо Улугбека, 44",,,"Сурхандарьинская область","base.uz",,,"00355"
"Сурхандарьинский областной филиал Ипотека банка","Сурхандарьинская область, г. Термез, ул. Кошгарий, 20-А",,,"Сурхандарьинская область","base.uz",,,"00356"
"Сурхандарьинский областной филиал Асака банка","190110, Сурхандарьинская область, г. Термез, ул. А. Навои, 45-A",,,"Сурхандарьинская область","base.uz",,,"00358"
"Шурчинский филиал Кишлок курилиш банка","191507, Сурхандарьинская область, Шурчинский район, г. Шурчи, ул. Мустакиллик, 77",,,"Сурхандарьинская область","base.uz",,,"00359"
"Денауский филиал Агробанка","190500, Сурхандарьинская область, Денауский район, г. Денау, ул. Мустакиллик, 39",,,"Сурхандарьинская область","base.uz",,,"00360"
"Денауский филиал Микрокредитбанка","190500, Сурхандарьинская область, Денауский район, г. Денау, ул. Н. Мирзаева, 202 А",,,"Сурхандарьинская область","base.uz",,,"00361"
"Денауский филиал Савдогар банка","190500, Сурхандарьинская область, Денауский район, г. Денау, ул. Мустакиллик, 38",,,"Сурхандарьинская область","base.uz",,,"00362"
"Сырдарьинское отделение Узнацбанка","120100, Сырдарьинская область, г.Г улистан, ул. А. Навои, 43",,,"Сырдарьинская область","base.uz",,,"00363"
"Сырдарьинский областной филиал Ипотека банка","120100, Сырдарьинская область, г. Гулистан, ул. А. Навои, 53",,,"Сырдарьинская область","base.uz",,,"00364"
"Сырдарьинский областной территориальный филиал Агробанка","120100, Сырдарьинская область, г. Гулистан, ул. Н. Махмудова, 21",,,"Сырдарьинская область","base.uz",,,"00365"
"Сырдарьинский областной филиал Микрокредитбанка","120100, Сырдарьинская область, г. Гулистан, ул. Бустон, 30",,,"Сырдарьинская область","base.uz",,,"00366"
"Гулистанский филиал Туронбанка","120100, Сырдарьинская область, г. Гулистан, ул. Ахунбабаева, 49",,,"Сырдарьинская область","base.uz",,,"00368"
"Сырдарьинский региональный филиал Кишлок курилиш банка","120100, Сырдарьинская область, г. Гулистан, ул. Н. Махмудова, 31",,,"Сырдарьинская область","base.uz",,,"00370"
"Сырдарьинский областной филиал Асака банка","120100, Сырдарьинская область, г. Гулистан, ул. Узбекистанская, 1",,,"Сырдарьинская область","base.uz",,,"00373"
"Сардобский филиал Агробанка","120800, Сырдарьинская область, Сардобский район, гп Пахтаабад, ул. Дустлик, 20",,,"Сырдарьинская область","base.uz",,,"00374"
"Сырдарьинский филиал Агробанка","120401, Сырдарьинская область, Сырдарьинский район, г. Сырдарья, ул. Хондамир, 1",,,"Сырдарьинская область","base.uz",,,"00375"
"Сырдарьинский филиал Микрокредитбанка","120401, Сырдарьинская область, Сырдарьинский район, г. Сырдарья, ул. А. Навои, 254",,,"Сырдарьинская область","base.uz",,,"00376"
"Янгиерский филиал Агробанка","121000, Сырдарьинская область, г. Янгиер, ул. Самарканд, 4",,,"Сырдарьинская область","base.uz",,,"00378"
"Баяутский филиал Агробанка","120200, Сырдарьинская область, Баяутский район, гп Баяут, ул. Тинчлик, 10",,,"Сырдарьинская область","base.uz",,,"00382"
"Ширинский филиал Агробанка","120219, Сырдарьинская область, г. Ширин, ул. Амира Темура, 9",,,"Сырдарьинская область","base.uz",,,"00383"
"Баяутский филиал Микрокредитбанка","120200, Сырдарьинская область, Баяутский район, гп Баяут, ул. Мукумий, 5",,,"Сырдарьинская область","base.uz",,,"00384"
"Гулистанский филиал Агробанка","120300, Сырдарьинская область, Гулистанский район, гп Дехканабад, ул. Туркистон, 4",,,"Сырдарьинская область","base.uz",,,"00386"
"Сайхунабадский филиал Агробанка","120400, Сырдарьинская область, Сайхунабадский район, гп Сайхун, ул. А. Навои, 8",,,"Сырдарьинская область","base.uz",,,"00388"
"Акалтынский филиал Агробанка","120500, Сырдарьинская область, Акалтынский район, гп Сардоба, ул. Исломобод, 2",,,"Сырдарьинская область","base.uz",,,"00390"
"Хавастский филиал Агробанка","120700, Сырдарьинская область, Хавастский район, ул. Нурчилар, 10",,,"Сырдарьинская область","base.uz",,,"00392"
"Ташкентский городской филиал Агробанка","100043, г. Ташкент, Чиланзарский район, проспект Бунёдкор, 15-B",,,"г.Ташкент","base.uz",,,"00394"
"АО Ziraat Bank Uzbekistan","100043, г. Ташкент, Чиланзарский район, проспект Бунёдкор, 15/АБВ",,,"г.Ташкент","base.uz",,,"00395"
"Учтепинский филиал Узпромстройбанка","100123, г. Ташкент, Учтепинский район, ул. Фархадская, 3А",,,"г.Ташкент","base.uz",,,"00397"
"Алмазарский филиал Узпромстройбанка","г. Ташкент, Алмазарский район, ул. О. Бабаджанова, 10",,,"г.Ташкент","base.uz",,,"00398"
"Мирзо Улугбекский филиал Узпромстройбанка","100000, г. Ташкент, Мирзо-Улугбекский район, ул. Истиклол, 25",,,"г.Ташкент","base.uz",,,"00399"
"Шахристанский филиал Узпромстройбанка","100084, г. Ташкент, Юнусабадский район, ул. Чинабад, 49",,,"г.Ташкент","base.uz",,,"00400"
"Головной офис Алокабанка","100047, г. Ташкент, Мирабадский район, проспект Амира Темура, 4",,,"г.Ташкент","base.uz",,,"00401"
"Нодирабегимский филиал Узпромстройбанка","100011, г. Ташкент, Шайхантахурский район, ул. Зульфияхоним, 8А",,,"г.Ташкент","base.uz",,,"00402"
"Сергелийский филиал Узпромстройбанка","100085, г. Ташкент, Сергелийский район, ул. Шокирарык, 3",,,"г.Ташкент","base.uz",,,"00403"
"Мирабадский филиал Узпромстройбанка","100015, г. Ташкент, Мирабадский район, ул. Туркистан, 10",,,"г.Ташкент","base.uz",,,"00405"
"Филиал ""Главное операционное отделение"" Узнацбанка","100060, г. Ташкент, Мирабадский район, ул. Я. Гуломова, 95",,,"г.Ташкент","base.uz",,,"00407"
"Ташкентский областной филиал Ипотека банка","100139, г. Ташкент, Учтепинский район, ул. Ширин, 40",,,"г.Ташкент","base.uz",,,"00408"
"Кибрайский филиал Савдогар банка","111200, Ташкентская область, Кибрайский район, гп Кибрай, ул. Зебунисо, 2",,,"Ташкентская область","base.uz",,,"00410"
"Ташкентский областной филиал Асака банка","100031, г. Ташкент, Яккасарайский район, ул. Кухинур, 40",,,"г.Ташкент","base.uz",,,"00411"
"Ахангаранский филиал Агробанка","110300, Ташкентская область, Ахангаранский район, г. Ахангаран, ул. Ф. Хужаева, 5",,,"Ташкентская область","base.uz",,,"00413"
"Зангиатинский филиал Савдогар банка","111800, Ташкентская область, Зангиатинский район, ул. Мустакиллик, 4",,,"Ташкентская область","base.uz",,,"00414"
"Ташкентский городской филиал Асака банка","100025, г. Ташкент, Яккасарайский район, ул. А. Каххора, 73",,,"г.Ташкент","base.uz",,,"00416"
"Автотранспортный филиал Асака банка","100100, г. Ташкент, Яккасарайский район, ул. Мукими, проезд - 1, 9",,,"г.Ташкент","base.uz",,,"00417"
"Газалкентский филиал Савдогар банка","110700, Ташкентская область, Газалкентский район, г. Газалкент, ул. Лутфий, 4",,,"Ташкентская область","base.uz",,,"00418"
"Ташкентский городской филиал Ипотека банка","100035, г. Ташкент, Мирзо-Улугбекский район, ул. Мустакиллик, 15",,,"г.Ташкент","base.uz",,,"00419"
"Мирабадский филиал Ипотека банка","100105, г. Ташкент, Мирабадский район, ул. Талимарджан, 1Б",,,"г.Ташкент","base.uz",,,"00420"
"Мирзо Улугбекский филиал Ипак Йули банка","100000, г. Ташкент, Мирзо-Улугбекский район, ул. Хамида Алимджана, 5",,,"г.Ташкент","base.uz",,,"00421"
"Мехнатский филиал Ипотека банка","100035, г. Ташкент, Мирзо-Улугбекский район, ул. Истиклол, 9",,,"г.Ташкент","base.uz",,,"00423"
"Ташкентский городской региональный филиал Узпромстройбанка","100000, г. Ташкент, Мирзо-Улугбекский район, проспект Мустакиллик, 5",,,"г.Ташкент","base.uz",,,"00424"
"Шайхантаурский филиал Ипотека банка","100027, г. Ташкент, Шайхантахурский район, ул. Узбекистанская, 16-А",,,"г.Ташкент","base.uz",,,"00425"
"Катарталский филиал Узпромстройбанка","100097, г. Ташкент, Чиланзарский район, ул. Катартал, 30",,,"г.Ташкент","base.uz",,,"00426"
"Чиланзарский филиал Узпромстройбанка","100097, г. Ташкент, Чиланзарский район, ул. Мехр, 10",,,"г.Ташкент","base.uz",,,"00427"
"Юнусабадский филиал Узпромстройбанка","100190, г. Ташкент, Юнусабадский район, ул. Уч кахраман, 7",,,"г.Ташкент","base.uz",,,"00428"
"Филиал ""Академия"" Узнацбанка","100125, г. Ташкент, Мирзо-Улугбекский район, ул. Дурмон йули, 47",,,"г.Ташкент","base.uz",,,"00431"
"Яшнободский филиал Узпромстройбанка","100015, г. Ташкент, Яшнободский район, ул. Тараккиёт, 69",,,"г.Ташкент","base.uz",,,"00432"
"Головной офис Микрокредитбанка","100096, г. Ташкент, Чиланзарский район, ул. Лутфий, 14",,,"г.Ташкент","base.uz",,,"00433"
"Аль-Хоразмийский филиал Узпромстройбанка","100208, г. Ташкент, Учтепинский район, ул. Чилонзар-30, 16А",,,"г.Ташкент","base.uz",,,"00434"
"Ракатский филиал Узпромстройбанка","100100, г. Ташкент, Яккасарайский район, ул. Шохжахон, 2А",,,"г.Ташкент","base.uz",,,"00435"
"Головной офис Савдогар банка","100060, г. Ташкент, Мирабадский район, ул. Саида Барака, 78",,,"г.Ташкент","base.uz",,,"00439"
"Головной офис Узпромстройбанка","100060, г. Ташкент, Юнусабадский район, ул. Шахрисабз, 3",,,"г.Ташкент","base.uz",,,"00440"
"Центральный операционный региональный филиал Узпромстройбанка","100128, г. Ташкент, Шайхантахурский район, ул. Абая, 10A",,,"г.Ташкент","base.uz",,,"00442"
"Ташкентский филиал HAMKORBANK","100003, г. Ташкент, Чиланзарский район, ул. Алмазар Фуркат, 14",,,"г.Ташкент","base.uz",,,"00443"
"Головной офис Ипак Йули банка","100017, г. Ташкент, Юнусабадский район, ул. Кодирий, 2",,,"г.Ташкент","base.uz",,,"00444"
"Ташкентский городской филиал Капиталбанка","100015, г. Ташкент, Мирабадский район, ул. Нукусская, 86А",,,"г.Ташкент","base.uz",,,"00445"
"Головной офис Туронбанка","100011, г. Ташкент, Шайхантахурский район, ул. Абая, 4-а",,,"г.Ташкент","base.uz",,,"00446"
"Головной офис УзНацбанка","100084, г. Ташкент, Юнусабадский район, ул. Амира Темура, 101",,,"г.Ташкент","base.uz",,,"00450"
"Филиал Главного управления по г.Ташкенту Узнацбанка","100019, г. Ташкент, Алмазарский район, ул. Г. Гуляма, 1",,,"г.Ташкент","base.uz",,,"00451"
"Ташкентский городской региональный филиал Кишлок курилиш банка","100060, г. Ташкент, Мирабадский район, ул. Шахрисабз, 38",,,"г.Ташкент","base.uz",,,"00452"
"Ташкентский областной территориальный филиал Агробанка","100128, г. Ташкент, Шайхантахурский район, ул. Х. Асомова, 9",,,"г. Ташкент","base.uz",,,"00454"
"Ташкентский областной филиал Микрокредитбанка","100121, г. Ташкент, Яккасарайский район, ул. Фарход, 3",,,"г.Ташкент","base.uz",,,"00455"
"Аккурганский филиал Агробанка","110400, Ташкентская область, Аккурганский район, г. Аккурган, ул. А. Кодирий, 1",,,"Ташкентская область","base.uz",,,"00457"
"Аккурганский филиал Микрокредитбанка","110400, Ташкентская область, Аккурганский район, г. Аккурган, ул. Ахунбабаева, 1",,,"Ташкентская область","base.uz",,,"00458"
"Алмалыкский филиал Ипотека банка","110100, Ташкентская область, г.Алмалык, Фахрийлар, 27",,,"Ташкентская область","base.uz",,,"00459"
"Ангренский филиал Ипотека банка","110200, Ташкентская область, г.Ангрен, А. Навои, 1",,,"Ташкентская область","base.uz",,,"00461"
"Букинский филиал Агробанка","110600, Ташкентская область, Букинский район, г. Бука, ул. Мустакиллик, 19",,,"Ташкентская область","base.uz",,,"00463"
"Газалкентский филиал Кишлок курилиш банка","Ташкентская область, Бостанлыкский район, г. Газалкент, ул. Беруний, 24",,,"Ташкентская область","base.uz",,,"00466"
"Газалкентский филиал Микрокредитбанка","Ташкентская область, Бостанлыкский район, г. Газалкент, ул. Туркистон, 5а",,,"Ташкентская область","base.uz",,,"00467"
"Бекабадский филиал Агробанка","111000, Ташкентская область, Бекабадский район, гп Зафар, ул. Гагарина, 15",,,"Ташкентская область","base.uz",,,"00468"
"Келесский филиал Микрокредитбанка","111100, Ташкентская область, Зангиатинский район, г. Келес, ул. Бинокор, 8",,,"Ташкентская область","base.uz",,,"00470"
"Пскентский филиал Агробанка","110600, Ташкентская область, Пскентский район, г. Пскент, ул. Мустакиллик, 1",,,"Ташкентская область","base.uz",,,"00472"
"Пскентский филиал Микрокредитбанка","Ташкентская область, Пскентский район, г. Пскент, ул. Мустакиллик, 2",,,"Ташкентская область","base.uz",,,"00473"
"Кийичирчикский филиал Агробанка","110900, Ташкентская область, Куйичирчикский район, г. Дустобод, ул. Узбекистанская, 154",,,"Ташкентская область","base.uz",,,"00474"
"Уртачирчикский филиал Агробанка","111500, Ташкентская область, Уртачирчикский район, г. Тойтепа, ул. Мирзо Улугбека, 11",,,"Ташкентская область","base.uz",,,"00475"
"Чиназский филиал Агробанка","111600, Ташкентская область, Чиназский район, г. Чиназ, ул. Шарофа Рашидова, 20",,,"Ташкентская область","base.uz",,,"00476"
"Чирчикский филиал Ипотека банка","111700, Ташкентская область, г.Чирчик, ул. Межканальная, 1",,,"Ташкентская область","base.uz",,,"00478"
"Юкоричирчикский филиал Агробанка","111900, Ташкентская область, Юкоричирчикский район, гп Янгибазар, ул. Мустакиллик, 106",,,"Ташкентская область","base.uz",,,"00480"
"Паркентский филиал Агробанка","111300, Ташкентская область, Паркентский район, г. Паркент, ул. А. Навои, 154",,,"Ташкентская область","base.uz",,,"00482"
"Паркентский филиал Микрокредитбанка","111300, Ташкентская область, Паркентский район, г. Паркент, ул. А. Навои, 105",,,"Ташкентская область","base.uz",,,"00483"
"Янгиюльский филиал Кишлок курилиш банка","Ташкентская область, Янгиюльский район, г. Янгиюль, ул. Ахунбабаева, 28",,,"Ташкентская область","base.uz",,,"00484"
"Янгиюльский филиал Агробанка","112000, Ташкентская область, Янгиюльский район, г. Янгиюль, ул. Самарканд, 154",,,"Ташкентская область","base.uz",,,"00485"
"Ахангаранский филиал Ипотека банка","Ташкентская область, Ахангаранский район, г. Ахангаран, ул. Ахунбабаева, 1",,,"Ташкентская область","base.uz",,,"00487"
"Бекабадский филиал Ипотека банка","110500, Ташкентская область, г. Бекабад, Саломатлик, 1",,,"Ташкентская область","base.uz",,,"00489"
"Ташкентский областной региональный филиал Узпромстройбанка","100128, г. Ташкент, Шайхантахурский район, ул. Абая, 10А",,,"г.Ташкент","base.uz",,,"00490"
"Головной офис Трастбанка","100015, г. Ташкент, Шайхантахурский район, ул. А.Навои, 7",,,"г.Ташкент","base.uz",,,"00491"
"Ферганское отделение Узнацбанка","150100, Ферганская область, г. Фергана, ул. Ал-Фарганий, 35",,,"Ферганская область","base.uz",,,"00493"
"Ферганский региональный филиал Узпромстройбанка","150100, Ферганская область, г. Фергана, ул. Комус, 42",,,"Ферганская область","base.uz",,,"00494"
"Ферганский областной территориальный филиал Агробанка","150100, Ферганская область, г. Фергана, ул. А. Навои, 11",,,"Ферганская область","base.uz",,,"00495"
"Ферганский областной филиал Микрокредитбанка","150100, Ферганская область, г. Фергана, ул. Янгисой, 1",,,"Ферганская область","base.uz",,,"00496"
"Ферганский областной филиал Народного банка","150100, Ферганская область, г. Фергана, ул. Мустакиллик, 33",,,"Ферганская область","base.uz",,,"00497"
"Ферганский филиал Туронбанка","150117, Ферганская область, г. Фергана, ул. Маърифат, 44",,,"Ферганская область","base.uz",,,"00498"
"Ферганский филиал Савдогар банка","150100, Ферганская область, г. Фергана, ул. Махмуда Пахлавона, 7",,,"Ферганская область","base.uz",,,"00500"
"Ферганский региональный филиал Кишлок курилиш банка","150105, Ферганская область, г. Фергана, ул. Курувчилар, 13",,,"Ферганская область","base.uz",,,"00501"
"Алтыарыкский филиал Агробанка","151200, Ферганская область, Алтыарыкский район, гп Алтыарык, ул. Узбекистанская, 3",,,"Ферганская область","base.uz",,,"00502"
"Багдадский филиал Агробанка","Ферганская область, Багдадский район, гп Багдад, ул. Ахунбабаева, 12",,,"Ферганская область","base.uz",,,"00504"
"Ферганский филиал Агробанка","150400, Ферганская область, Ферганский район, Вадил, ул. А. Тошматова, 1",,,"Ферганская область","base.uz",,,"00507"
"Дангаринский филиал Агробанка","150500, Ферганская область, Дангаринский район, гп Дангара, ул. Ташкент, 10",,,"Ферганская область","base.uz",,,"00510"
"Учкуприкский филиал Агробанка","151600, Ферганская область, Учкуприкский район, гп Учкуприк, ул. Навруз, 16",,,"Ферганская область","base.uz",,,"00511"
"Бешарыкский филиал Агробанка","150300, Ферганская область, Бешарыкский район, г. Бешарык, ул. Олтин водий, 85",,,"Ферганская область","base.uz",,,"00513"
"Куштепинский филиал Агробанка","151100, Ферганская область, Куштепинский район, нп Лангар, ул. Шарофа Рашидова, 6",,,"Ферганская область","base.uz",,,"00515"
"Кувасайский филиал Агробанка","150400, Ферганская область, г. Кувасай, ул. Мустакиллик, 72",,,"Ферганская область","base.uz",,,"00517"
"Риштанский филиал Агробанка","151300, Ферганская область, Риштанский район, г. Риштан, ул. Рошидоний, 9",,,"Ферганская область","base.uz",,,"00519"
"Риштанский филиал Микрокредитбанка","151300, Ферганская область, Риштанский район, г. Риштан, ул. Темирова, 12",,,"Ферганская область","base.uz",,,"00520"
"Ташлакский филиал Агробанка","151500, Ферганская область, Ташлакский район, нп Ташлак, ул. А. Навои, 10",,,"Ферганская область","base.uz",,,"00522"
"Киргулийский филиал Узпромстройбанка","Ферганская область, г. Фергана, ул. Ферганская, 19",,,"Ферганская область","base.uz",,,"00524"
"Бувайдинский филиал Агробанка","151900, Ферганская область, Бувайдинский район, ул. Дустлик, 3",,,"Ферганская область","base.uz",,,"00525"
"Маргиланский филиал Кишлок курилиш банка","151100, Ферганская область, г. Маргилан, ул. Маргилоний, 173",,,"Ферганская область","base.uz",,,"00527"
"Маргиланский филиал Агробанка","151100, Ферганская область, г. Маргилан, ул. Б. Маргилоний, 172",,,"Ферганская область","base.uz",,,"00528"
"Кувинский филиал Агробанка","150800, Ферганская область, Кувинский район, г. Кува, ул. Кайкубод, 282",,,"Ферганская область","base.uz",,,"00529"
"Кокандский филиал Узпромстройбанка","150700, Ферганская область, г. Коканд, ул. Амира Темура, 1А",,,"Ферганская область","base.uz",,,"00531"
"Узбекистанский филиал Агробанка","151800, Ферганская область, Узбекистанский район, г. Яйпан, ул. Жомий, 1",,,"Ферганская область","base.uz",,,"00533"
"Ферганский областной филиал Асака банка","150117, Ферганская область, г. Фергана, ул. А. Навои, 1",,,"Ферганская область","base.uz",,,"00539"
"Язъяванский филиал Агробанка","150600, Ферганская область, Язъяванский район, гп Язъяван, ул. Андижан, 1",,,"Ферганская область","base.uz",,,"00541"
"Сохский филиал Агробанка","151400, Ферганская область, Сохский район, гп Равон, ул. Амира Темура, 34",,,"Ферганская область","base.uz",,,"00542"
"Ферганский областной филиал Ипотека банка","150100, Ферганская область, г. Фергана, ул. Комус, 38",,,"Ферганская область","base.uz",,,"00544"
"Кокандский филиал Узнацбанка","150700, Ферганская область, г. Коканд, ул. Хамзы, 34",,,"Ферганская область","base.uz",,,"00545"
"Кокандский филиал Агробанка","150700, Ферганская область, г. Коканд, ул. Истикбол, 34",,,"Ферганская область","base.uz",,,"00546"
"Ургенчское отделение Узнацбанка","220100, Хорезмская область, г. Ургенч, ул. Пахлавона Махмуда, 150",,,"Хорезмская область","base.uz",,,"00547"
"Хорезмский областной территориальный филиал Агробанка","220100, Хорезмская область, г. Ургенч, ул. Ал-Хоразмий, 17",,,"Хорезмская область","base.uz",,,"00548"
"Хорезмский областной филиал Микрокредитбанка","220100, Хорезмская область, г. Ургенч, ул. Абдуллы Кодирий, 2",,,"Хорезмская область","base.uz",,,"00549"
"Ургенчский филиал Туронбанка","220100, Хорезмская область, г. Ургенч, ул. Хонка, 104-а",,,"Хорезмская область","base.uz",,,"00551"
"Хорезмский областной филиал Савдогар банка","220100, Хорезмская область, г. Ургенч, ул. Пахлавона Махмуда, 182",,,"Хорезмская область","base.uz",,,"00552"
"Хорезмский региональный филиал Кишлок курилиш банка","220100, Хорезмская область, г. Ургенч, ул. Ал-Хоразмий, 19",,,"Хорезмская область","base.uz",,,"00553"
"Гурленский филиал Агробанка","220300, Хорезмская область, Гурленский район, гп Гурлен, ул. Бобура, 14",,,"Хорезмская область","base.uz",,,"00554"
"Багатский филиал Агробанка","220200, Хорезмская область, Багатский район, гп Багат, ул. Узбекистанская, 4",,,"Хорезмская область","base.uz",,,"00556"
"Багатский филиал Микрокредитбанка","220200, Хорезмская область, Багатский район, гп Багат, ул. Ургенч, 1",,,"Хорезмская область","base.uz",,,"00557"
"Хазараспский филиал Агробанка","220700, Хорезмская область, Хазараспский район, гп Хазарасп, ул. Мустакиллик, 42",,,"Хорезмская область","base.uz",,,"00558"
"Ханкинский филиал Агробанка","220800, Хорезмская область, Ханкинский район, гп Ханка, ул. О. Бобожонова, 5",,,"Хорезмская область","base.uz",,,"00560"
"Ханкинский филиал Кишлок курилиш банка","220800, Хорезмская область, Ханкинский район, гп Ханка, ул. У. Юсупова, 30",,,"Хорезмская область","base.uz",,,"00562"
"Янгиарыкский филиал Агробанка","221100, Хорезмская область, Янгиарыкский район, гп Янгиарык, ул. Ургенч, 6",,,"Хорезмская область","base.uz",,,"00563"
"Кушкупырский филиал Агробанка","220300, Хорезмская область, Кошкупырский район, гп Кошкупыр, ул. Мустакиллик, 55",,,"Хорезмская область","base.uz",,,"00565"
"Шаватский филиал Агробанка","221000, Хорезмская область, Шаватский район, гп Шават, ул. Замахшарий, 19",,,"Хорезмская область","base.uz",,,"00567"
"Шаватский филиал Микрокредитбанка","221000, Хорезмская область, Шаватский район, гп Шават, ул. Туркистон, 79",,,"Хорезмская область","base.uz",,,"00568"
"Ургенчский филиал Агробанка","220500, Хорезмская область, Ургенчский район, нп Караул, ул. Мустакиллик, 9",,,"Хорезмская область","base.uz",,,"00569"
"Караулский филиал Микрокредитбанка","220514, Хорезмская область, Караулский район, нп Караул, ул. Мустакиллик, 2",,,"Хорезмская область","base.uz",,,"00570"
"Янгибазарский филиал Агробанка","221200, Хорезмская область, Янгибазарский район, гп Янгибазар, ул. Ж. Мангуберди, 4",,,"Хорезмская область","base.uz",,,"00574"
"Хивинский филиал Кишлок курилиш банка","220900, Хорезмская область, Хивинский район, г. Хива, ул. Феруз, 87",,,"Хорезмская область","base.uz",,,"00576"
"Хивинский филиал Микрокредитбанка","220900, Хорезмская область, Хивинский район, г. Хива, ул. К. Девоний, 36",,,"Хорезмская область","base.uz",,,"00578"
"Хорезмский областной филиал Ипотека банка","220100, Хорезмская область, г. Ургенч, ул. Узбекистанская, 19",,,"Хорезмская область","base.uz",,,"00579"
"Филиал ""Тинчлик"" Ипотека банка","220100, Хорезмская область, г. Ургенч, ул. Тинчлик, 22А",,,"Хорезмская область","base.uz",,,"00580"
"Хорезмский областной филиал Асака банка","220100, Хорезмская область, г. Ургенч, ул. А. Баходирхона, 184-Б",,,"Хорезмская область","base.uz",,,"00581"
"Каракалпакстанское отделение Узнацбанка","230100, Республика Каракалпакстан, г. Нукус, ул. Гарезсизлик, 52",,,"Республика Каракалпакстан","base.uz",,,"00582"
"Территориальный филиал Республики Каракалпакстан Агробанка","230100, Республика Каракалпакстан, г. Нукус, ул. А. Шохмурадова, 101",,,"Республика Каракалпакстан","base.uz",,,"00583"
"филиал Республика Каракалпакстан Микрокредитбанка","230100, Республика Каракалпакстан, г. Нукус, ул. Каракалпакстанская, 6",,,"Республика Каракалпакстан","base.uz",,,"00584"
"Нукусский филиал Туронбанка","230100, Республика Каракалпакстан, г. Нукус, ул. Шарофа Рашидова, 25-а",,,"Республика Каракалпакстан","base.uz",,,"00585"
"Каракалпакстанский региональный филиал Кишлок курилиш банка","230100, Республика Каракалпакстан, г. Нукус, ул. Каракалпакстан, 28",,,"Республика Каракалпакстан","base.uz",,,"00588"
"Кегейлийский филиал Агробанка","230500, Республика Каракалпакстан, Кегейлийский район, гп Кегейли, ул. Дустлик, 52",,,"Республика Каракалпакстан","base.uz",,,"00589"
"Шуманайский филиал Агробанка","Республика Каракалпакстан, Шуманайский район, г. Шуманай, ул. Ажнияз, 54",,,"Республика Каракалпакстан","base.uz",,,"00590"
"Кунградский филиал Узпромстройбанка","Республика Каракалпакстан, Кунградский район, г. Кунград, ул. Т. Айберганова, 2",,,"Республика Каракалпакстан","base.uz",,,"00591"
"Кунградский филиал Агробанка","Республика Каракалпакстан, Кунградский район, г. Кунград, ул. Бабаниязова, 1",,,"Республика Каракалпакстан","base.uz",,,"00592"
"Муйнакский филиал Агробанка","230800, Республика Каракалпакстан, Муйнакский район, г. Муйнак, ул. Бердаха, 13",,,"Республика Каракалпакстан","base.uz",,,"00594"
"Нукусский филиал Агробанка","230900, Республика Каракалпакстан, Нукусский район, гп Акмангит, ул. Дарсан, 40",,,"Республика Каракалпакстан","base.uz",,,"00595"
"Тахтакупырский филиал Агробанка","231100, Республика Каракалпакстан, Тахтакупырский район, гп Тахтакупыр, ул. Дустлик, 62",,,"Республика Каракалпакстан","base.uz",,,"00597"
"Турткульский филиал Агробанка","231200, Республика Каракалпакстан, Турткульский район, г. Турткуль, ул. Почтовая, 3",,,"Республика Каракалпакстан","base.uz",,,"00598"
"Турткульский филиал Микрокредитбанка","231200, Республика Каракалпакстан, Турткульский район, г. Турткуль, ул. Турткуль, 57",,,"Республика Каракалпакстан","base.uz",,,"00599"
"Турткульский филиал Савдогар банка","231200, Республика Каракалпакстан, Турткульский район, г. Турткуль, ул. Турткуль, 57",,,"Республика Каракалпакстан","base.uz",,,"00600"
"Ходжейлийский филиал Агробанка","231300, Республика Каракалпакстан, Ходжейлийский район, г. Ходжейли, ул. Дустлик, 3",,,"Республика Каракалпакстан","base.uz",,,"00602"
"Чимбайский филиал Агробанка","231400, Республика Каракалпакстан, Чимбайский район, г. Чимбай, ул. Эрназара Алакуза, 1",,,"Республика Каракалпакстан","base.uz",,,"00605"
"Берунийский филиал Агробанка","230200, Республика Каракалпакстан, Берунийский район, г. Беруни, ул. Кольцевая автодорога, 5",,,"Республика Каракалпакстан","base.uz",,,"00607"
"Канлыкульский филиал Агробанка","230300, Республика Каракалпакстан, Канлыкульский район, гп Канлыкуль, ул. Дустлик, 20",,,"Республика Каракалпакстан","base.uz",,,"00609"
"Кунградский филиал Кишлок курилиш банка","230600, Республика Каракалпакстан, Кунградский район, г. Кунград, ул. Бобониязова",,,"Республика Каракалпакстан","base.uz",,,"00611"
"Караузакский филиал Агробанка","230400, Республика Каракалпакстан, Караузякский район, гп Караузяк, ул. Каракалпакстанская, 76",,,"Республика Каракалпакстан","base.uz",,,"00612"
"Элликкалинский филиал Агробанка","231600, Республика Каракалпакстан, Элликкалинский район, г. Бустан, ул. Шарофа Рашидова, 8",,,"Республика Каракалпакстан","base.uz",,,"00614"
"Тахиаташский филиал Узпромстройбанка","231000, Республика Каракалпакстан, Ходжейлийский район, г. Тахиаташ, ул. С.Авезова, 29",,,"Республика Каракалпакстан","base.uz",,,"00616"
"Амударьинский филиал Агробанка","230700, Республика Каракалпакстан, Амударьинский район, г. Мангит, ул. Бердаха, 11",,,"Республика Каракалпакстан","base.uz",,,"00619"
"Мангитский филиал Микрокредитбанка","230700, Республика Каракалпакстан, Амударьинский район, г. Мангит, ул. Бердаха, 17",,,"Республика Каракалпакстан","base.uz",,,"00620"
"Каракалпакстанский филиал Ипотека банка","230100, Республика Каракалпакстан, г. Нукус, ул. А. Шамуратова, 97",,,"Республика Каракалпакстан","base.uz",,,"00621"
"Каракалпакстанский филиал Алокабанка","230100, Республика Каракалпакстан, г. Нукус, ул. Турон, 25a",,,"Республика Каракалпакстан","base.uz",,,"00623"
"Каракалпакстанский филиал Асака банка","230100, Республика Каракалпакстан, г. Нукус, ул. Каракалпакстанская, 2",,,"Республика Каракалпакстан","base.uz",,,"00625"
"Чимбайский филиал Кишлок курилиш банка","231400, Республика Каракалпакстан, Чимбайский район, г. Чимбай, ул. Эмазара Алакуза, 36",,,"Республика Каракалпакстан","base.uz",,,"00626"
"Бузский филиал Народного банка","170400, Андижанская область, Бозский район, гп Боз, ул. А. Икромова, 26",,,"Андижанская область","base.uz",,,"00628"
"Кокандский филиал Кишлок курилиш банка","150700, Ферганская область, г. Коканд, ул. Амира Темура, 30 A",,,"Ферганская область","base.uz",,,"00630"
"Кокандский филиал Асака банка","150700, Ферганская область, г. Коканд, ул. Истиклол, 25",,,"Ферганская область","base.uz",,,"00631"
"Киргулийский филиал Народного банка","Ферганская область, г. Фергана, ул. Шарофа Рашидова, 86",,,"Ферганская область","base.uz",,,"00632"
"Турткульский филиал Народного банка","231200, Республика Каракалпакстан, Турткульский район, г. Турткуль, ул. Шарофа Рашидова, 68",,,"Республика Каракалпакстан","base.uz",,,"00633"
"Амударьинский филиал Народного банка","230700, Республика Каракалпакстан, Амударьинский район, г. Мангит, ул. Бердаха, 1",,,"Республика Каракалпакстан","base.uz",,,"00634"
"Чимбайский филиал Народного банка","231400, Республика Каракалпакстан, Чимбайский район, г. Чимбай, ул. Е. Алакоза, 11",,,"Республика Каракалпакстан","base.uz",,,"00635"
"Берунийский филиал Народного банка","230200, Республика Каракалпакстан, Берунийский район, г. Беруни, ул. Беруний, 1",,,"Республика Каракалпакстан","base.uz",,,"00636"
"Муйнакский филиал Народного банка","230800, Республика Каракалпакстан, Муйнакский район, г. Муйнак, ул. Бердаха, 13",,,"Республика Каракалпакстан","base.uz",,,"00637"
"Областной филиал Республики Каракалпакстан Народного банка","230100, Республика Каракалпакстан, г. Нукус, ул. Гарезсизлик, 74",,,"Республика Каракалпакстан","base.uz",,,"00638"
"Кунградский филиал Народного банка","Республика Каракалпакстан, Кунградский район, г. Кунград, ул. Каракалпакстан, 65",,,"Республика Каракалпакстан","base.uz",,,"00639"
"Кегейлийский филиал Народного банка","230500, Республика Каракалпакстан, Кегейлийский район, гп Кегейли, Дустлик гузар",,,"Республика Каракалпакстан","base.uz",,,"00640"
"Тахтакупырский филиал Народного банка","231100, Республика Каракалпакстан, Тахтакупырский район, гп Тахтакупыр, ул. Е. Алакоза",,,"Республика Каракалпакстан","base.uz",,,"00641"
"Шуманайский филиал Народного банка","Республика Каракалпакстан, Шуманайский район, г. Шуманай, ул. Узбекистанская, 53",,,"Республика Каракалпакстан","base.uz",,,"00642"
"Тахиаташский филиал Народного банка","231000, Республика Каракалпакстан, Ходжейлийский район, Тахиаташский район, ул. Мустакиллик, 8",,,"Республика Каракалпакстан","base.uz",,,"00643"
"Канлыкульский филиал Народного банка","230300, Республика Каракалпакстан, Канлыкульский район, гп Канлыкуль, ул. Дустлик, 9",,,"Республика Каракалпакстан","base.uz",,,"00644"
"Караузякский филиал Народного банка","230400, Республика Каракалпакстан, Караузякский район, гп Караузяк, ул. А.Турешова",,,"Республика Каракалпакстан","base.uz",,,"00645"
"Элликкалинский филиал Народного банка","231601, Республика Каракалпакстан, Элликкалинский район, г. Бустан, ул. Шарофа Рашидова, 25",,,"Республика Каракалпакстан","base.uz",,,"00646"
"Акмангитский филиал Народного банка","230900, Республика Каракалпакстан, Нукусский район, гп Акмангит, ул. Дарсан, 15",,,"Республика Каракалпакстан","base.uz",,,"00647"
"Андижанский областной филиал Народного банка","170102, Андижанская область, г. Андижан, ул. Олтинкул, 3",,,"Андижанская область","base.uz",,,"00649"
"Асакинский филиал Народного банка","170200, Андижанская область, Асакинский район, г. Асака, ул. Имома Бухорий, 37",,,"Андижанская область","base.uz",,,"00650"
"Шахриханский филиал Народного банка","171600, Андижанская область, Шахриханский район, г. Шахрихан, ул. Шахрихан, 44",,,"Андижанская область","base.uz",,,"00651"
"Мархаматский филиал Народного банка","170800, Андижанская область, Мархаматский район, г. Мархамат, ул. Мухиддинова, 73",,,"Андижанская область","base.uz",,,"00652"
"Джалалкудукский филиал Народного банка","171100, Андижанская область, Джалалкудукский район, г. Ахунбабаев, ул. Узбекистанская, 52",,,"Андижанская область","base.uz",,,"00653"
"Избасканский филиал Народного банка","171200, Андижанская область, Избасканский район, ул. Ж. Сиддикова, 15",,,"Андижанская область","base.uz",,,"00654"
"Балыкчинский филиал Народного банка","Андижанская область, Балыкчинский район, гп Баликчи, ул. Балыкчи, 40",,,"Андижанская область","base.uz",,,"00655"
"Ходжаабадский филиал Народного банка","171400, Андижанская область, Ходжаабадский район, г. Ходжаабад, ул. Узун, 5",,,"Андижанская область","base.uz",,,"00656"
"Пахтаабадский филиал Народного банка","171300, Андижанская область, Пахтаабадский район, г. Пахтаабад, ул. Сой, 14",,,"Андижанская область","base.uz",,,"00657"
"Куйганярский филиал Народного банка","170600, Андижанская область, Андижанский район, гп Куйган-яр, ул. У. Юсупова, 12",,,"Андижанская область","base.uz",,,"00658"
"Кургантепинский филиал Народного банка","170700, Андижанская область, Кургантепинский район, г. Кургантепа, ул. К. Юсупова, 10",,,"Андижанская область","base.uz",,,"00659"
"Ханабадский филиал Народного банка","Андижанская область, г.Ханабад, ул. С. Мехмонова, 11",,,"Андижанская область","base.uz",,,"00660"
"Алтынкульский филиал Народного банка","171000, Андижанская область, Алтынкульский район, нп Алтынкуль, ул. М. Алиева, 2",,,"Андижанская область","base.uz",,,"00662"
"Карасувский филиал Народного банка","170708, Андижанская область, Кургантепинский район, г. Карасу, ул. Бобуршох, 148",,,"Андижанская область","base.uz",,,"00663"
"Булакбашинский филиал Народного банка","170500, Андижанская область, Булакбашинский район, гп Булокбоши, ул. Мустакиллик, 4",,,"Андижанская область","base.uz",,,"00664"
"Каганский филиал Народного банка","200700, Бухарская область, г. Каган, ул. Ватанпарвар, 2",,,"Бухарская область","base.uz",,,"00665"
"Гиждуванский филиал Народного банка","200500, Бухарская область, Гиждуванский район, г. Гиждуван, ул. Баховуддина Накшбанда, 4",,,"Бухарская область","base.uz",,,"00666"
"Каракульский филиал Народного банка","200800, Бухарская область, Каракульский район, г. Каракуль, ул. Улугбека, 4",,,"Бухарская область","base.uz",,,"00667"
"Вабкентский филиал Народного банка","200300, Бухарская область, Вабкентский район, г. Вабкент, ул. Г. Гуляма, 3а",,,"Бухарская область","base.uz",,,"00668"
"Ромитанский филиал Народного банка","201000, Бухарская область, Ромитанский район, г. Ромитан, ул. Бахаристан, 73",,,"Бухарская область","base.uz",,,"00669"
"Шафирканский филиал Народного банка","201100, Бухарская область, Шафирканский район, г. Шафиркан, ул. Ф. Хужаева, 10/2",,,"Бухарская область","base.uz",,,"00670"
"Жондорский филиал Народного банка","200600, Бухарская область, Жондорский район, гп Жондор, ул. Варахша, 48",,,"Бухарская область","base.uz",,,"00671"
"Галаасийский филиал Народного банка","200400, Бухарская область, Бухарский район, г. Галлаасия, ул. Буюк Ипак йули, 56/1",,,"Бухарская область","base.uz",,,"00672"
"Алатский филиал Народного банка","200200, Бухарская область, Алатский район, г. Алат, ул. 50 лет Олот, 3",,,"Бухарская область","base.uz",,,"00673"
"Пешкунский филиал Народного банка","201200, Бухарская область, Пешкунский район, гп Янгибозор, ул. Ибн Сина, 3",,,"Бухарская область","base.uz",,,"00674"
"Заминский филиал Народного банка","130804, Джизакская область, Зааминский район, гп Заамин, ул. Г. Гуляма, 40",,,"Джизакская область","base.uz",,,"00675"
"Джизакский областной филиал Народного банка","130100, Джизакская область, г. Джизак, ул. Шарофа Рашидова, 53",,,"Джизакская область","base.uz",,,"00676"
"Галлааральский филиал Народного банка","130400, Джизакская область, Галляаральский район, г. Галляарал, ул. Мустакиллик, 23",,,"Джизакская область","base.uz",,,"00677"
"Фаришский филиал Народного банка","131200, Джизакская область, Фаришский район, гп Янгикишлак, ул. Богдон махалля, 8",,,"Джизакская область","base.uz",,,"00678"
"Мирзачульский филиал Народного банка","130300, Джизакская область, Мирзачульский район, г. Гагарин, ул. Узбекистанская, 50",,,"Джизакская область","base.uz",,,"00679"
"Пахтакорский филиал Народного банка","130900, Джизакская область, Пахтакорский район, г. Пахтакор, ул. Дилором махалля, 3",,,"Джизакская область","base.uz",,,"00680"
"Бахмальский филиал Народного банка","131004, Джизакская область, Бахмальский район, гп Усмат, ул. Х. Алимджана, 15",,,"Джизакская область","base.uz",,,"00681"
"Дустликский филиал Народного банка","130500, Джизакская область, Дустликский район, г. Дустлик, ул. Дустлик, 15",,,"Джизакская область","base.uz",,,"00682"
"Арнасайский филиал Народного банка","130200, Джизакская область, Арнасайский район, гп Голиблар, ул. Саркисова, 1/1",,,"Джизакская область","base.uz",,,"00683"
"Учтепинский филиал Народного банка","130100, Джизакская область, Шароф Рашидовский район, Кулама КФЙ,  Кушкуприк махалла, ул. Мустакиллик, 24, 1-этаж",,,"Джизакская область","base.uz",,,"00684"
"Зарбдарский филиал Народного банка","130805, Джизакская область, Зарбдарский район, гп Зарбдар, ул. Мустакиллик, 12",,,"Джизакская область","base.uz",,,"00685"
"Зафарабадский филиал Народного банка","130703, Джизакская область, Зафарабадский район, гп Зафарабад, ул. Дустлик, 12",,,"Джизакская область","base.uz",,,"00686"
"Кашкадарьинский областной филиал Народного банка","180112, Кашкадарьинская область, г. Карши, ул. Амира Темура, 44",,,"Кашкадарьинская область","base.uz",,,"00687"
"Касанский филиал Народного банка","180803, Кашкадарьинская область, Касанский район, г. Касан, ул. Насаф, 2",,,"Кашкадарьинская область","base.uz",,,"00688"
"Чиракчинский филиал Народного банка","Кашкадарьинская область, Чиракчинский район, г. Чиракчи, ул. Мустакиллик, 1",,,"Кашкадарьинская область","base.uz",,,"00689"
"Шахрисабзский филиал Народного банка","Кашкадарьинская область, Шахрисабзский район, г. Шахрисабз, ул. Буюк Ипак йули, 58",,,"Кашкадарьинская область","base.uz",,,"00690"
"Яккабагский филиал Народного банка","Кашкадарьинская область, Яккабагский район, г. Яккабаг, ул. Амира Темура, 19",,,"Кашкадарьинская область","base.uz",,,"00691"
"Гузарский филиал Народного банка","180300, Кашкадарьинская область, Гузарский район, г. Гузар, ул. Мустакиллик, 6",,,"Кашкадарьинская область","base.uz",,,"00692"
"Дехканабадский филиал Народного банка","180819, Кашкадарьинская область, Дехканабадский район, гп Корашина, ул. Мирзо Улугбека, 4",,,"Кашкадарьинская область","base.uz",,,"00693"
"Китабский филиал Народного банка","180700, Кашкадарьинская область, Китабский район, г. Китаб, ул. Буюк Ипак йули, 4",,,"Кашкадарьинская область","base.uz",,,"00694"
"Бешкентский филиал Народного банка","180200, Кашкадарьинская область, Каршинский район, г. Бешкент, ул. Хамзы, 17",,,"Кашкадарьинская область","base.uz",,,"00695"
"Камашинский филиал Народного банка","180500, Кашкадарьинская область, Камашинский район, г. Камаши, ул. Амира Темура, 1",,,"Кашкадарьинская область","base.uz",,,"00696"
"Касбинский филиал Народного банка","180600, Кашкадарьинская область, Касбинский район, гп Муглон, ул. Амира Темура, 3",,,"Кашкадарьинская область","base.uz",,,"00697"
"Нишанский филиал Народного банка","180221, Кашкадарьинская область, Нишанский район, г. Янги-Нишан, ул. Мустакиллик, 1",,,"Кашкадарьинская область","base.uz",,,"00698"
"Миришкорский филиал Народного банка","Кашкадарьинская область, Миришкорский район, гп Янги Миришкор, ул. Узбекистанская, 11",,,"Кашкадарьинская область","base.uz",,,"00699"
"Мубарекский филиал Народного банка","Кашкадарьинская область, Мубарекский район, г. Мубарек, ул. 4 микрорайон, 22/2",,,"Кашкадарьинская область","base.uz",,,"00700"
"Нуратинский филиал Народного банка","210700, Навоийская область, Нуратинская район, г. Нурата, ул. Амира Темура, 34",,,"Навоийская область","base.uz",,,"00702"
"Навоийский областной филиал Народного банка","210600, Навоийская область, Карманинский район, гп Кармана, ул. К. Каршиева, 90",,,"Навоийская область","base.uz",,,"00703"
"Хатырчинский филиал Народного банка","211000, Навоийская область, Хатырчинский район, г. Янгирабод, ул. Мустакиллик, 62",,,"Навоийская область","base.uz",,,"00704"
"Кызылтепинский филиал Народного банка","210402, Навоийская область, Кызылтепинский район, г. Кызылтепа, ул. Узбекистанская, 10-62",,,"Навоийская область","base.uz",,,"00706"
"Навоийский городской филиал Народного банка","210100, Навоийская область, г. Навои, ул. Халклар дустлиги, 54б",,,"Навоийская область","base.uz",,,"00708"
"Зарафшанский филиал Народного банка","Навоийская область, г. Зарафшан, микрорайон 1, 14-7",,,"Навоийская область","base.uz",,,"00709"
"Навбахорский филиал Народного банка","Навоийская область, Навбахорский район, нп Бешрабад, ул. Эргашева, 1",,,"Навоийская область","base.uz",,,"00710"
"Наманганский областной филиал Народного банка","160136, Наманганская область, г. Наманган, ул. Лутфий, 5",,,"Наманганская область","base.uz",,,"00711"
"Янгикурганский филиал Народного банка","161200, Наманганская область, Янгикурганский район, гп Янгикурган, ул. Чорток, 4",,,"Наманганская область","base.uz",,,"00712"
"Мингбулакский филиал Народного банка","160200, Наманганская область, Мингбулакский район, гп Джамашуй, ул. А. Навои, 2",,,"Наманганская область","base.uz",,,"00713"
"Папский филиал Народного банка","160500, Наманганская область, Папский район, г. Пап, ул. С. Рахимова, 2",,,"Наманганская область","base.uz",,,"00714"
"Чустский филиал Народного банка","161100, Наманганская область, Чустский район, г. Чуст, ул. М. Фаёзова, 57",,,"Наманганская область","base.uz",,,"00715"
"Уйчинский филиал Народного банка","160800, Наманганская область, Уйчинский район, гп Уйчи, ул. С. Рахимова, 7",,,"Наманганская область","base.uz",,,"00716"
"Учкурганский филиал Народного банка","160900, Наманганская область, Учкурганский район, г. Учкурган, ул. Дустлик, 24",,,"Наманганская область","base.uz",,,"00717"
"Касансайский филиал Народного банка","160300, Наманганская область, Касансайский район, г. Касансай, ул. Гулобод, 9",,,"Наманганская область","base.uz",,,"00718"
"Туракурганский филиал Народного банка","160704, Наманганская область, Туракурганский район, г. Туракурган, ул. Ал Фергани, 23",,,"Наманганская область","base.uz",,,"00719"
"Ташбулакский филиал Народного банка","160600, Наманганская область, Наманганский район, гп Ташбулак, ул. Ахунова, 5",,,"Наманганская область","base.uz",,,"00720"
"Чартакский филиал Народного банка","161000, Наманганская область, Чартакский район, г. Чартак, ул. Истиклал, 5",,,"Наманганская область","base.uz",,,"00721"
"Нарынский филиал Народного банка","160400, Наманганская область, Нарынский район, г. Хаккулабад, ул. Беруний, 12",,,"Наманганская область","base.uz",,,"00722"
"Богишамолский филиал Народного банка","140100, Самаркандская область, г. Самарканд, ул. А. Навои, 43",,,"Самаркандская область","base.uz",,,"00724"
"Каттакурганский филиал Народного банка","Самаркандская область, г. Каттакурган, ул. Шавкий, 45",,,"Самаркандская область","base.uz",,,"00725"
"Пайарыкский филиал Народного банка","141300, Самаркандская область, Пайарыкский район, г. Пайарык, ул. Самаркандская, 59",,,"Самаркандская область","base.uz",,,"00726"
"Булунгурский филиал Народного банка","140200, Самаркандская область, Булунгурский район, г. Булунгур, ул. Фозила Йулдоша, 5",,,"Самаркандская область","base.uz",,,"00727"
"Акдарьинский филиал Народного банка","141000, Самаркандская область, Акдарьинский район, гп Лаиш, ул. Амира Темура, 41",,,"Самаркандская область","base.uz",,,"00728"
"Пастдаргомский филиал Народного банка","Самаркандская область, Пастдаргомский район, г. Джума, ул. С.Урдашева, 2",,,"Самаркандская область","base.uz",,,"00729"
"Ургутский филиал Народного банка","141600, Самаркандская область, Ургутский район, г. Ургут, проспект А. Навои, 15",,,"Самаркандская область","base.uz",,,"00730"
"Нарпайский филиал Народного банка","140601, Самаркандская область, Нарпайский район, г. Акташ, ул. Амира Темура, 11",,,"Самаркандская область","base.uz",,,"00731"
"Джамбайский филиал Народного банка","140163, Самаркандская область, Джамбайский район, г. Джамбай, ул. Мустакиллик, 2",,,"Самаркандская область","base.uz",,,"00732"
"Пахтачинский филиал Народного банка","140600, Самаркандская область, Пахтачийский район, гп Зиатдин, ул. Истиклол, 49",,,"Самаркандская область","base.uz",,,"00733"
"Самаркандский филиал Народного банка","140300, Самаркандская область, Самаркандский район, ул. Х. Ахрора, 2",,,"Самаркандская область","base.uz",,,"00734"
"Иштиханский филиал Народного банка","Самаркандская область, Иштыханский район, г. Иштыхан, ул. А. Навои, 9",,,"Самаркандская область","base.uz",,,"00735"
"Темирюльский филиал Народного банка","140145, Самаркандская область, г. Самарканд, ул. Амира Темура, 158",,,"Самаркандская область","base.uz",,,"00736"
"Пайшанбинский филиал Народного банка","Самаркандская область, Каттакурганский район, гп Пайшанба, ул. А. Навои, 4",,,"Самаркандская область","base.uz",,,"00737"
"Сиабский филиал Народного банка","140110, Самаркандская область, г. Самарканд, ул. Ташкентская, 43",,,"Самаркандская область","base.uz",,,"00738"
"Кушрабадский филиал Народного банка","140900, Самаркандская область, Кошрабадский район, гп Кушрабад, ул. Мустакиллик, 40",,,"Самаркандская область","base.uz",,,"00739"
"Нурабадский филиал Народного банка","141100, Самаркандская область, Нурабадский район, г. Нурабад, ул. Амира Темура, 4",,,"Самаркандская область","base.uz",,,"00740"
"Челакский филиал Народного банка","141324, Самаркандская область, Пайарыкский район, ул. Шарофа Рашидова, 55",,,"Самаркандская область","base.uz",,,"00741"
"Тайлакский филиал Народного банка","141503, Самаркандская область, Тайлякский район, гп Тайлок, ул. Ал-Беруний, 67",,,"Самаркандская область","base.uz",,,"00742"
"Сурхандарьинский областной филиал Народного банка","190112, Сурхандарьинская область, г. Термез, ул. Коший, 2а",,,"Сурхандарьинская область","base.uz",,,"00744"
"Узунский филиал Народного банка","191000, Сурхандарьинская область, Узунский район, гп Узун, ул. Н. Рамазонова, 12",,,"Сурхандарьинская область","base.uz",,,"00745"
"Байсунский филиал Народного банка","190400, Сурхандарьинская область, Байсунский район, г. Байсун, ул. Пирова, 50",,,"Сурхандарьинская область","base.uz",,,"00746"
"Денауский филиал Народного банка","190500, Сурхандарьинская область, Денауский район, г. Денау, ул. Мустакиллик, 45",,,"Сурхандарьинская область","base.uz",,,"00747"
"Шерабадский филиал Народного банка","191400, Сурхандарьинская область, Шерабадский район, г. Шерабад, ул. Мустакиллик, 94",,,"Сурхандарьинская область","base.uz",,,"00748"
"Джаркурганский филиал Народного банка","190600, Сурхандарьинская область, Джаркурганский район, г. Джаркурган, ул. Ахунбабаева, 5",,,"Сурхандарьинская область","base.uz",,,"00749"
"Шурчинский филиал Народного банка","191500, Сурхандарьинская область, Шурчинский район, г. Шурчи, ул. Мустакиллик, 1",,,"Сурхандарьинская область","base.uz",,,"00750"
"Ангорский филиал Народного банка","Сурхандарьинская область, Ангорский район, гп Ангор, ул. Ал-Термизий, 7",,,"Сурхандарьинская область","base.uz",,,"00751"
"Музрабадский филиал Народного банка","Сурхандарьинская область, Музрабадский район, гп Халкабад, ул. Турон, 2",,,"Сурхандарьинская область","base.uz",,,"00752"
"Кизирикский филиал Народного банка","191407, Сурхандарьинская область, Кизирикский район, гп Сарик, ул. Мустакиллик, 1",,,"Сурхандарьинская область","base.uz",,,"00753"
"Кумкурганский филиал Народного банка","190900, Сурхандарьинская область, Кумкурганский район, г. Кумкурган, ул. Ойдин, 1",,,"Сурхандарьинская область","base.uz",,,"00754"
"Алтынсайский филиал Народного банка","191500, Сурхандарьинская область, Алтынсайский район, гп Корлик, ул. Основная, 1а",,,"Сурхандарьинская область","base.uz",,,"00755"
"Учкизилский филиал Народного банка","191200, Сурхандарьинская область, Термезский район, гп Учкизил, ул. Ат-Термизий, 4",,,"Сурхандарьинская область","base.uz",,,"00756"
"Сариасийский филиал Народного банка","191014, Сурхандарьинская область, Сариасийский район, ул. Аэропорт, 1",,,"Сурхандарьинская область","base.uz",,,"00757"
"Сырдарьинский областной филиал Народного банка","120100, Сырдарьинская область, г. Гулистан, ул. А. Яссавий, 12",,,"Сырдарьинская область","base.uz",,,"00759"
"Сырдарьинский городской филиал Народного банка","120401, Сырдарьинская область, Сырдарьинский район, г. Сырдарья, ул. Узбекистанская, 145",,,"Сырдарьинская область","base.uz",,,"00760"
"Янгиерский филиал Народного банка","121000, Сырдарьинская область, г. Янгиер, ул. А. Навои, 6",,,"Сырдарьинская область","base.uz",,,"00761"
"Баяутский филиал Народного банка","120200, Сырдарьинская область, Баяутский район, гп Баяут, ул. Беруний, 13",,,"Сырдарьинская область","base.uz",,,"00762"
"Сардобский филиал Народного банка","120800, Сырдарьинская область, Сардобский район, гп Пахтаабад, ул. О.Тиллаева, 15",,,"Сырдарьинская область","base.uz",,,"00763"
"Гулистанский филиал Народного банка","120400, Сырдарьинская область, Гулистанский район, гп Дехканабад, ул. Зиёкор, 2",,,"Сырдарьинская область","base.uz",,,"00764"
"Сайхунабадский филиал Народного банка","120400, Сырдарьинская область, Сайхунабадский район, гп Сайхун, ул. К. Мурадова, 38",,,"Сырдарьинская область","base.uz",,,"00765"
"Акалтынский филиал Народного банка","121000, Сырдарьинская область, Акалтынский район, гп Сардоба, Исламобод махалля",,,"Сырдарьинская область","base.uz",,,"00766"
"Мирзаабадский филиал Народного банка","120908, Сырдарьинская область, Мирзаабадский район, гп Навруз, ул. Мустакиллик, 2",,,"Сырдарьинская область","base.uz",,,"00767"
"Бостанлыкский филиал Народного банка","Ташкентская область, Бостанлыкский район, г. Газалкент, ул. Алтинсарин, 7",,,"Ташкентская область","base.uz",,,"00770"
"Юкоричирчикский филиал Народного банка","111900, Ташкентская область, Юкоричирчикский район, гп Янгибазар, ул. Мустакиллик, 44",,,"Ташкентская область","base.uz",,,"00771"
"Ахангаранский филиал Народного банка","110300, Ташкентская область, Ахангаранский район, г. Ахангаран, ул. Ахунбабаева, 9",,,"Ташкентская область","base.uz",,,"00772"
"Кийичирчикский филиал Народного банка","110900, Ташкентская область, Куйичирчикский район, г. Дустобод, ул. Бегимкулова, 53",,,"Ташкентская область","base.uz",,,"00773"
"Пскентский филиал Народного банка","110600, Ташкентская область, Пскентский район, г. Пскент, ул. Амира Темура, 173",,,"Ташкентская область","base.uz",,,"00774"
"Уртачирчикский филиал Народного банка","111500, Ташкентская область, Уртачирчикский район, г. Тойтепа, ул. Гулзор, 12",,,"Ташкентская область","base.uz",,,"00775"
"Кибрайский филиал Народного банка","Ташкентская область, Кибрайский район, гп Кибрай, ул. Зеб, 5",,,"Ташкентская область","base.uz",,,"00776"
"Янгиюльский филиал Народного банка","112000, Ташкентская область, Янгиюльский район, г. Янгиюль, ул. Самарканд, 229",,,"Ташкентская область","base.uz",,,"00777"
"Зангиатинский филиал Народного банка","Ташкентская область, Зангиатинский район, ул. Ахунбабаева, 22",,,"Ташкентская область","base.uz",,,"00778"
"Аккурганский филиал Народного банка","110400, Ташкентская область, Аккурганский район, г. Аккурган, ул. А. Навои, 1",,,"Ташкентская область","base.uz",,,"00779"
"Чиназский филиал Народного банка","111600, Ташкентская область, Чиназский район, г. Чиназ, ул. Самарканд, 30",,,"Ташкентская область","base.uz",,,"00780"
"Чирчикский филиал Народного банка","111700, Ташкентская область, г. Чирчик, ул. Фурката, 5",,,"Ташкентская область","base.uz",,,"00781"
"Букинский филиал Народного банка","110600, Ташкентская область, Букинский район, г. Бука, ул. Магистрал, 15",,,"Ташкентская область","base.uz",,,"00782"
"Бекабадский филиал Народного банка","110506, Ташкентская область, г. Бекабад, ул. Буюк ипак йули, 1а",,,"Ташкентская область","base.uz",,,"00783"
"Ангренский филиал Народного банка","110200, Ташкентская область, г. Ангрен, Ахангаранская, 25",,,"Ташкентская область","base.uz",,,"00784"
"Алмалыкский филиал Народного банка","110100, Ташкентская область, г. Алмалык, ул. Амира Темура, 30",,,"Ташкентская область","base.uz",,,"00785"
"Келесский филиал Народного банка","111100, Ташкентская область, Ташкентский район, ул. Гофурова, 10",,,"Ташкентская область","base.uz",,,"00786"
"Зафарский филиал Народного банка","111013, Ташкентская область, Бекабадский район, гп Зафар, ул. Мустакиллик, 6",,,"Ташкентская область","base.uz",,,"00787"
"Паркентский филиал Народного банка","111300, Ташкентская область, Паркентский район, г. Паркент, ул. А. Навои, 12",,,"Ташкентская область","base.uz",,,"00788"
"Кокандский филиал Народного банка","150700, Ферганская область, г. Коканд, ул. Истиклол, 22",,,"Ферганская область","base.uz",,,"00789"
"Маргиланский филиал Народного банка","151100, Ферганская область, г. Маргилан,ул.  Б. Маргилоний, 172",,,"Ферганская область","base.uz",,,"00790"
"Узбекистанский филиал Народного банка","Ферганская область, Узбекистанский район, г. Яйпан, ул. Ахунбабаева, 194",,,"Ферганская область","base.uz",,,"00792"
"Бувайдинский филиал Народного банка","151900, Ферганская область, Бувайдинский район, ул. Янгикургон, 23",,,"Ферганская область","base.uz",,,"00793"
"Багдадский филиал Народного банка","150200, Ферганская область, Багдадский район, гп Багдад, ул. Мустакиллик, 8",,,"Ферганская область","base.uz",,,"00794"
"Риштанский филиал Народного банка","151300, Ферганская область, Риштанский район, г. Риштан, ул. Рашидоний, 201",,,"Ферганская область","base.uz",,,"00795"
"Алтыарыкский филиал Народного банка","151200, Ферганская область, Алтыарыкский район, гп Алтыарык, ул. Мустакиллик, 28",,,"Ферганская область","base.uz",,,"00796"
"Бешарыкский филиал Народного банка","150300, Ферганская область, Бешарыкский район, г. Бешарык, ул. Олтин водий, 77",,,"Ферганская область","base.uz",,,"00797"
"Ташлакский филиал Народного банка","151500, Ферганская область, Ташлакский район, гп Ташлак, ул. Огахий, 9",,,"Ферганская область","base.uz",,,"00798"
"Кувинский филиал Народного банка","150800, Ферганская область, Кувинский район, г. Кува, ул. Кайкубод, 115",,,"Ферганская область","base.uz",,,"00799"
"Дангаринский филиал Народного банка","150500, Ферганская область, Дангаринский район, гп Дангара, ул. Ташкент, 56",,,"Ферганская область","base.uz",,,"00800"
"Вадилский филиал Народного банка","150400, Ферганская область, Ферганский район, Вадил, ул. Маргилон, 90",,,"Ферганская область","base.uz",,,"00801"
"Кувасайский филиал Народного банка","150400, Ферганская область, г. Кувасай, Кувасай Файз",,,"Ферганская область","base.uz",,,"00802"
"Куштепинский филиал Народного банка","150000, Ферганская область, Куштепинский район, ул. Шарофа Рашидова, 3",,,"Ферганская область","base.uz",,,"00803"
"Учкуприкский филиал Народного банка","151600, Ферганская область, Учкуприкский район, гп Учкуприк, ул. Отахонова, 2",,,"Ферганская область","base.uz",,,"00804"
"Язъяванский филиал Народного банка","150600, Ферганская область, Язъяванский район, гп Язъяван, ул. Ё. Имомназарова, 43",,,"Ферганская область","base.uz",,,"00805"
"Сохский филиал Народного банка","151400, Ферганская область, Сохский район, гп Равон, ул. Амира Темура, 46",,,"Ферганская область","base.uz",,,"00806"
"Фуркатский филиал Народного банка","151700, Ферганская область, Фуркатский район, гп Навбахор, ул. Усмонобод, 1",,,"Ферганская область","base.uz",,,"00807"
"Хорезмский областной филиал Народного банка","220100, Хорезмская область, г. Ургенч, ул. Тинчлик, 2",,,"Хорезмская область","base.uz",,,"00808"
"Гурленский филиал Народного банка","220300, Хорезмская область, Гурленский район, гп Гурлен, ул. Бобура, 16",,,"Хорезмская область","base.uz",,,"00809"
"Шаватский филиал Народного банка","221000, Хорезмская область, Шаватский район, гп Шават, ул. Ж. Мангуберди, 9",,,"Хорезмская область","base.uz",,,"00810"
"Хивинский филиал Народного банка","220900, Хорезмская область, Хивинский район, г. Хива, ул. Феруз, 12",,,"Хорезмская область","base.uz",,,"00811"
"Ханкинский филиал Народного банка","220800, Хорезмская область, Ханкинский район, гп Ханка, ул. Халклар Дустлиги, 4",,,"Хорезмская область","base.uz",,,"00812"
"Хазараспский филиал Народного банка","220700, Хорезмская область, Хазараспский район, гп Хазарасп, ул. Э. Гаязова, 6",,,"Хорезмская область","base.uz",,,"00813"
"Янгиарыкский филиал Народного банка","221100, Хорезмская область, Янгиарыкский район, гп Янгиарык, ул. Урганч, 1",,,"Хорезмская область","base.uz",,,"00814"
"Кушкупырский филиал Народного банка","220300, Хорезмская область, Кошкупырский район, гп Кошкупыр, ул. Мустакиллик, 51",,,"Хорезмская область","base.uz",,,"00815"
"Багатский филиал Народного банка","220200, Хорезмская область, Багатский район, гп Багат, ул. Узбекистанская, 1",,,"Хорезмская область","base.uz",,,"00816"
"Караульский филиал Народного банка","Хорезмская область, Ургенчский район, нп Караул, ул. Мустакиллик, 149",,,"Хорезмская область","base.uz",,,"00817"
"Питнакский филиал Народного банка","220400, Хорезмская область, Хазараспский район, г. Питнак, ул. Навруз, 1",,,"Хорезмская область","base.uz",,,"00818"
"Янгибазарский филиал Народного банка","221200, Хорезмская область, Янгибазарский район, гп Янгибазар, ул. Ж. Мангуберди, 1",,,"Хорезмская область","base.uz",,,"00819"
"Мирабадский филиал Народного банка","100015, г. Ташкент, Мирабадский район, ул. Нукусская, 2",,,"г.Ташкент","base.uz",,,"00820"
"Шайхантаурский филиал Народного банка","100011, г. Ташкент, Шайхантахурский район, Центр-14, 19",,,"г.Ташкент","base.uz",,,"00821"
"Мирзо-Улугбекский филиал Народного банка","100000, г. Ташкент, Мирзо-Улугбекский район, ул. Х. Алимджана, 13а",,,"г.Ташкент","base.uz",,,"00822"
"Юнусабадский филиал Народного банка","100093, г. Ташкент, Юнусабадский район, квартал 2, проспект Амир Темура, 1а",,,"г.Ташкент","base.uz",,,"00823"
"Чиланзарский филиал Народного банка","г. Ташкент, Чиланзарский район, ул. Лабиховуз, 16",,,"г.Ташкент","base.uz",,,"00825"
"Сергелийский филиал Народного банка","100129, г. Ташкент, Сергелийский район, ул. Сергели 4, 31а",,,"г.Ташкент","base.uz",,,"00826"
"Яшнабодский филиал Народного банка","г. Ташкент, Яшнободский район, ул. Бешарык, 116",,,"г.Ташкент","base.uz",,,"00827"
"Алмазарский филиал Народного банка","100095, г. Ташкент, Алмазарский район, ул. О. Бабаджанова, 10",,,"г.Ташкент","base.uz",,,"00828"
"Учтепинский филиал Народного банка","100156, г. Ташкент, Учтепинский район,  Чилонзар 25, 41",,,"г.Ташкент","base.uz",,,"00829"
"Бектемирский филиал Народного банка","100182, г. Ташкент, Бектемирский район, ул. Х. Байкаро, 43",,,"г.Ташкент","base.uz",,,"00830"
"Юнусабадский филиал КДБ Банк Узбекистана","100084, г. Ташкент, Юнусабадский район, ул. Минор, 77",,,"г.Ташкент","base.uz",,,"00831"
"Ташкентское областное отделение Узнацбанка","100015, г. Ташкент, Мирабадский район, ул. Т. Шевченко, 29",,,"г.Ташкент","base.uz",,,"00832"
"Ташкентский городской филиал Савдогар банка","100047, г. Ташкент, Юнусабадский район, ул. Матбуотчилар, 17",,,"г.Ташкент","base.uz",,,"00835"
"Юнусабадский филиал Узнацбанка","100037, г. Ташкент, Юнусабадский район, квартал 11, 32а",,,"г.Ташкент","base.uz",,,"00836"
"Юнусабадский филиал Ипотека банка","100084, г. Ташкент, Юнусабадский район, ул. Амира Темура, 89-а",,,"г.Ташкент","base.uz",,,"00837"
"Ходжейлийский филиал Народного банка","231300, Республика Каракалпакстан область, Ходжейлийский район, г. Ходжейли, ул. Дустлик, 47",,,"Республика Каракалпакстан","base.uz",,,"00839"
"Головной офис КДБ Банк Узбекистан","100047, г. Ташкент, Мирабадский район, ул. Бухоро, 3",,,"г.Ташкент","base.uz",,,"00842"
"Мубарекский филиал Узнацбанка","180500, Кашкадарьинская область, Мубарекский район, г. Мубарек, ул. Занжирсарай, 15/3",,,"Кашкадарьинская область","base.uz",,,"00844"
"Денауский филиал Узнацбанка","190503, Сурхандарьинская область, Денауский район, г. Денау, ул. Мустакиллик, 20",,,"Сурхандарьинская область","base.uz",,,"00845"
"Турткульский филиал Узнацбанка","231200, Республика Каракалпакстан область, Турткульский район, г. Турткуль, ул. Турткуль, 56",,,"Республика Каракалпакстан","base.uz",,,"00846"
"Яшнободский филиал Узнацбанка","100047, г. Ташкент, Яшнободский район, ул. Содик  Азимова тупик 1, 2А",,,"г.Ташкент","base.uz",,,"00847"
"Гиждуванский филиал Узнацбанка","200500, Бухарская область, Гиждуванский район, г. Гиждуван, ул. С. Ёдгорова, 45",,,"Бухарская область","base.uz",,,"00849"
"Ташкентский филиал Трастбанка","100043, г. Ташкент, Чиланзарский район, ул. Бунёдкор, квартал ""Е"", 11-а",,,"г.Ташкент","base.uz",,,"00850"
"Хорезмский региональный филиал Узпромстройбанка","220100, Хорезмская область, г. Ургенч, ул. Янги Ургенч, 22",,,"Хорезмская область","base.uz",,,"00853"
"Кашкадарьинский региональный филиал Узпромстройбанка","180106, Кашкадарьинская область, г. Карши, проспект Хонобод, 2А",,,"Кашкадарьинская область","base.uz",,,"00854"
"Сырдарьинский региональный филиал Узпромстройбанка","120100, Сырдарьинская область, г. Гулистан, ул. А. Навои, 48",,,"Сырдарьинская область","base.uz",,,"00855"
"Гурленский филиал Узнацбанка","220300, Хорезмская область, Гурленский район, гп Гурлен, ул. Пахлавона Махмуда, 64",,,"Хорезмская область","base.uz",,,"00859"
"Хазараспский филиал Узнацбанка","220700, Хорезмская область, Хазараспский район, гп Хазарасп, ул. У. Юсупова, 1-А",,,"Хорезмская область","base.uz",,,"00860"
"Хорезмский филиал Алокабанка","220100, Хорезмская область, г. Ургенч, ул. Р. Махмуда, 23",,,"Хорезмская область","base.uz",,,"00861"
"Тукимачиликский филиал Узпромстройбанка","200100, Бухарская область, г. Бухара, ул. А. Навои, 5",,,"Бухарская область","base.uz",,,"00862"
"Чирчикский филиал Узпромстройбанка","111700, Ташкентская область, г. Чирчик, Межканальная, 1А",,,"Ташкентская область","base.uz",,,"00863"
"Ургутский филиал Узнацбанка","141600, Самаркандская область, Ургутский район, г. Ургут, ул. А. Навоий , 176",,,"Самаркандская область","base.uz",,,"00865"
"Ахангаранский филиал Кишлок курилиш банка","110300, Ташкентская область, Ахангаранский район, г. Ахангаран, ул. Холмухамедова, 38/1",,,"Ташкентская область","base.uz",,,"00866"
"Кувинский филиал Кишлок курилиш банка","150800, Ферганская область, Кувинский район, г. Кува, ул. Кайкуббод, 242-A",,,"Ферганская область","base.uz",,,"00867"
"Каракалпакстанский региональный филиал Узпромстройбанка","230100, Республика Каракалпакстан, г. Нукус, ул. А. Шамуратова, 117А",,,"Республика Каракалпакстан","base.uz",,,"00868"
"Сергелийский филиал Узнацбанка","100085, г. Ташкент, Сергелийский район, Сергели 6, на территории Дехканского базара",,,"г.Ташкент","base.uz",,,"00869"
"Яккасарайский филиал Узнацбанка","100090, г. Ташкент, Яккасарайский район, ул. Бобура, 85",,,"г.Ташкент","base.uz",,,"00870"
"Головной офис Асака банка","100015, г. Ташкент, Мирабадский район, ул. Нукусская, 67",,,"г.Ташкент","base.uz",,,"00873"
"Наманганский филиал Алокабанка","160103, Наманганская область, г. Наманган, ул. Бобомурода Машраба, 12",,,"Наманганская область","base.uz",,,"00874"
"Мирабадский филиал Узнацбанка","100005, г. Ташкент, Мирабадский район, ул. Банокатий, 165",,,"г.Ташкент","base.uz",,,"00875"
"Алмазарский филиал Узнацбанка","100175, г. Ташкент, Алмазарский район, ул. Коракамыш 2, 54",,,"г.Ташкент","base.uz",,,"00876"
"Уйчинский филиал Узнацбанка","160800, Наманганская область, Уйчинский район, гп Уйчи, ул. Беруний, 32",,,"Наманганская область","base.uz",,,"00877"
"Шайхантаурский филиал Узнацбанка","100002, г. Ташкент, Шайхантахурский район, базар Эски жува",,,"г.Ташкент","base.uz",,,"00878"
"Учкудукский филиал Узнацбанка","Навоийская область, Учкудукский район, г. Учкудук, ул. Амира Темура, 45",,,"Навоийская область","base.uz",,,"00880"
"Учкурганский филиал Узнацбанка","160900, Наманганская область, Учкурганский район, г. Учкурган, ул. Дустлик, 18",,,"Наманганская область","base.uz",,,"00881"
"Филиал ""Центральное операционное отделение"" Узнацбанка","100084, г. Ташкент, Юнусабадский район, пр. Амира Темура, 101",,,"г.Ташкент","base.uz",,,"00882"
"Кибрайский филиал Узпромстройбанка","Ташкентская область, Кибрайский район, гп Кибрай, ул. Зебунисо, 7",,,"Ташкентская область","base.uz",,,"00884"
"Бешарыкский филиал Узнацбанка","150300, Ферганская область, Бешарыкский район, г. Бешарык, ул. Олтин Водий, 111",,,"Ферганская область","base.uz",,,"00885"
"Кувинский филиал Узнацбанка","150800, Ферганская область, Кувинский район, г. Кува, ул. Яссавий, 55",,,"Ферганская область","base.uz",,,"00886"
"Кунградский филиал Узнацбанка","Республика Каракалпакстан, Кунградский район, г. Кунград, ул. Гарезсизлик, 31",,,"Республика Каракалпакстан","base.uz",,,"00888"
"Ангренский филиал Узнацбанка","110200, Ташкентская область, г. Ангрен , ул. Охангарон, 1",,,"Ташкентская область","base.uz",,,"00890"
"Туракурганский филиал Узнацбанка","160704, Наманганская область, Туракурганский район, г. Туракурган, ул. Туракурган, 3",,,"Наманганская область","base.uz",,,"00891"
"Джизакский индустриальный филиал Узнацбанка","130112, Джизакская область, г. Джизак, промышленная зона ""A"", Свободная экономическая зона ""Джизак"", Административное здание",,,"Джизакская область","base.uz",,,"00892"
"Асакинский филиал Узнацбанка","170200, Андижанская область, Асакинский район, г. Асака, ул. Амира Темура, 27 а",,,"Андижанская область","base.uz",,,"00893"
"Гузарский филиал Узнацбанка","180303, Кашкадарьинская область, Гузарский район, г. Гузар, ул. Узбекистанская, 14",,,"Кашкадарьинская область","base.uz",,,"00894"
"Мирзо-Улугбекский филиал Узнацбанка","100000, г. Ташкент, Мирзо-Улугбекский район, пр. Мустакиллик, 66",,,"г.Ташкент","base.uz",,,"00895"
"Юнусабадский филиал Туркистон банка","100000, г. Ташкент, Юнусабадский район, ул. Амира Темура 1-проезд, 6",,,"г.Ташкент","base.uz",,,"00898"
"Каганский филиал Узнацбанка","200702, Бухарская область, Каганский район, г. Каган, ул. Караульбазар, 1",,,"Бухарская область","base.uz",,,"00899"
"Алмазарский филиал Ипотека банка","100147, г. Ташкент, Алмазарский район, ул. Фарабий, 5",,,"г.Ташкент","base.uz",,,"00901"
"Филиал ""Отделение Саёхат"" Узнацбанка","100185, г. Ташкент, Чиланзарский район, ул. Бунёдкор, 28",,,"г.Ташкент","base.uz",,,"00905"
"Шаватский филиал Узнацбанка","221000, Хорезмская область, Шаватский район, гп Шават, ул. Туркманистон, 11",,,"Хорезмская область","base.uz",,,"00907"
"Янгиерский филиал Кишлок курилиш банка","Сырдарьинская область, г. Янгиер, ул. Шарофа Рашидова, 17",,,"Сырдарьинская область","base.uz",,,"00909"
"Каракульский филиал Узнацбанка","200800, Бухарская область, Каракульский район, г. Каракуль, ул. Улугбека, 2",,,"Бухарская область","base.uz",,,"00910"
"Янгиюльский филиал Узнацбанка","Ташкентская область, Янгиюльский район, ул. Самаркандская, 178",,,"Ташкентская область","base.uz",,,"00911"
"Бекабадский филиал Узнацбанка","Ташкентская область, г. Бекабад, ул. Пешакова, 22",,,"Ташкентская область","base.uz",,,"00912"
"Джамбайский филиал Узнацбанка","140163, Самаркандская область, Джамбайский район, г. Джамбай, ул. 40 лет Победы, 29",,,"Самаркандская область","base.uz",,,"00913"
"Кумкурганский филиал Узнацбанка","190900, Сурхандарьинская область, Кумкурганский район, г. Кумкурган, ул. Беруний, 6",,,"Сурхандарьинская область","base.uz",,,"00914"
"Ханкинский филиал Узнацбанка","220800, Хорезмская область, Ханкинский район, гп Ханка, ул. Ал-Хоразмий, 2-А",,,"Хорезмская область","base.uz",,,"00915"
"Мирзачульский филиал Узнацбанка","130300, Джизакская область, Мирзачульский район, г. Гагарин, ул. Узбекистанская, 106",,,"Джизакская область","base.uz",,,"00916"
"Учтепинский филиал Узнацбанка","100138, г. Ташкент, Учтепинский район, ул. Фархадская, 54",,,"г.Ташкент","base.uz",,,"00918"
"Тойтепинский филиал Узнацбанка","111500, Ташкентская область, Уртачирчикский район, г. Тойтепа, ул. Тошкент йули, 57",,,"Ташкентская область","base.uz",,,"00920"
"Андижанский филиал Алокабанка","170011, Андижанская область, г. Андижан, ул. Пахтакор, 11",,,"Андижанская область","base.uz",,,"00923"
"Бекабадский филиал Кишлок курилиш банка","Ташкентская область, г. Бекабад, ул. Бирлик, 2",,,"Ташкентская область","base.uz",,,"00924"
"Шафирканский филиал Узнацбанка","201100, Бухарская область, Шафирканский район, г. Шафиркан, ул. Мустакиллик, 9",,,"Бухарская область","base.uz",,,"00927"
"Самаркандский филиал Агробанка","140300, Самаркандская область, Самаркандский район, гп Гулабад, ул. Гулабод, 5",,,"Самаркандская область","base.uz",,,"00929"
"Бектемирский филиал Узнацбанка","100182, г. Ташкент, Бектемирский район, ул. Х. Байкаро, 15",,,"г.Ташкент","base.uz",,,"00930"
"Газалкентский филиал Узнацбанка","Ташкентская область, Бостанлыкский район, ул. Олтинсарин, 12",,,"Ташкентская область","base.uz",,,"00931"
"Чартакский филиал Узнацбанка","161000, Наманганская область, Чартакский район, г. Чартак, ул. Истиклол, 5",,,"Наманганская область","base.uz",,,"00932"
"Джаркурганский филиал Кишлок курилиш банка","190600, Сурхандарьинская область, Джаркурганский район, махалля Нурли Диёр, ул. Н. Боймуродова, 1",,,"Сурхандарьинская область","base.uz",,,"00933"
"Сариасийский филиал Кишлок курилиш банка","Сурхандарьинская область, Сариасийский район, гп Сариасия, ул. Мирзо Улугбека, 18",,,"Сурхандарьинская область","base.uz",,,"00934"
"Головной офис Ипотека банка","100000, г. Ташкент, Мирзо-Улугбекский район, ул. Шахрисабзская, 30",,,"г.Ташкент","base.uz",,,"00937"
"Нурабадский филиал Узнацбанка","141100, Самаркандская область, Нурабадский район, г. Нурабад, ул. Мустакиллик , 27",,,"Самаркандская область","base.uz",,,"00939"
"Янгиарыкский филиал Узнацбанка","221100, Хорезмская область, Янгиарыкский район, гп Янгиарык, ул. Мустакиллик, 78",,,"Хорезмская область","base.uz",,,"00940"
"Пастдаргомский филиал Узнацбанка","Самаркандская область, Пастдаргомский район, г. Джума, ул. Самаркандская, 87",,,"Самаркандская область","base.uz",,,"00941"
"Вабкентский филиал Узнацбанка","200300, Бухарская область, Вабкентский район, г. Вабкент, ул. С. Ярашева, 23",,,"Бухарская область","base.uz",,,"00942"
"Ромитанский филиал Узнацбанка","201000, Бухарская область, Ромитанский район, г. Ромитан, ул. Шафитулина, 1",,,"Бухарская область","base.uz",,,"00943"
"Кызылтепинский филиал Узнацбанка","210402, Навоийская область, Кызылтепинский район, г. Кызылтепа, проспект Узбекистанский, 35",,,"Навоийская область","base.uz",,,"00945"
"Риштанский филиал Узнацбанка","151300, Ферганская область, Риштанский район, г. Риштан, ул. Рошидоний, 253",,,"Ферганская область","base.uz",,,"00946"
"Дочерний банк банка ""Садерат"" Ирана в городе г. Ташкенте Республики Узбекистан","100060, г. Ташкент, Мирабадский район, ул, Чехова,10",,,"г.Ташкент","base.uz",,,"00950"
"Берунийский филиал Кишлок курилиш банка","230200, Республика Каракалпакстан Берунийский район, г. Беруни, ул. Халклар дустлиги, 10",,,"Республика Каракалпакстан","base.uz",,,"00953"
"Дарханский филиал Трастбанка","100000, г. Ташкент, Мирзо-Улугбекский район, площадь Хамида Алимджана, Западная сторона, 5 ""Б""",,,"г.Ташкент","base.uz",,,"00954"
"Мархаматский филиал Узнацбанка","170800, Андижанская область, Мархаматский район, г. Мархамат, ул. Ипак йули, 146",,,"Андижанская область","base.uz",,,"00955"
"Кокандский филиал HAMKORBANK","150700, Ферганская область, г. Коканд, ул. Кипчокарык, 98",,,"Ферганская область","base.uz",,,"00956"
"Сергелийский филиал Асака банка","100209, г. Ташкент, Сергелийский район, ул. Обихаёт, 39",,,"г.Ташкент","base.uz",,,"00958"
"Яшнободский филиал Ипотека банка","100040, г. Ташкент, Яшнободский район, ул. Лисунова, 69-А",,,"г.Ташкент","base.uz",,,"00959"
"Чиназский филиал HAMKORBANK","111600, Ташкентская область, Чиназский район, г. Чиназ, ул. Шарофа Рашидова, 12a",,,"Ташкентская область","base.uz",,,"00960"
"Бухарский филиал Алокабанка","200114, Бухарская область, г. Бухара, ул. Каюма Муртазаева, 6a",,,"Бухарская область","base.uz",,,"00961"
"Чинабадский филиал HAMKORBANK","170318, Андижанская область, Балыкчинский район, ул. Чинобод, 19",,,"Андижанская область","base.uz",,,"00962"
"Юнусабадский филиал Асака банка","100093, г. Ташкент, Юнусабадский район, квартал 2, 8",,,"г.Ташкент","base.uz",,,"00963"
"Истикболский филиал HAMKORBANK","150100, Ферганская область, г. Фергана, ул. Б. Маргилоний, 74a",,,"Ферганская область","base.uz",,,"00965"
"Бухарский филиал HAMKORBANK","200117, Бухарская область, г. Бухара, ул. К. Муртазоева, 5",,,"Бухарская область","base.uz",,,"00966"
"Сурхандарьинский филиал Алокабанка","190110, Сурхандарьинская область, г. Термез, ул. А. Навои, 6a",,,"Сурхандарьинская область","base.uz",,,"00967"
"Шайхантаурский филиал Асака банка","100021, г. Ташкент, Шайхантахурский район, ул. Фурката, 9",,,"г.Ташкент","base.uz",,,"00969"
"Головной офис Универсал банка","150700, Ферганская область, г. Коканд, ул. Шохрухобод",,,"Ферганская область","base.uz",,,"00973"
"Операционное управление Капиталбанка","100000, г. Ташкент, Мирабадский район, ул. Матбуотчилар, 32",,,"г.Ташкент","base.uz",,,"00974"
"Галаасийский филиал Кишлок курилиш банка","200400, Бухарская область, Бухарский район, г. Галлаасия, улица Буюк Ипак Йули, 25",,,"Бухарская область","base.uz",,,"00975"
"Янгиюльский филиал HAMKORBANK","Ташкентская область, Янгиюльский район, г. Янгиюль, ул. Самарканд, 215",,,"Ташкентская область","base.uz",,,"00976"
"Сергелийский филиал Ипотека банка","100085, г. Ташкент, Сергелийский район, ул. Мехригиё, 1",,,"г.Ташкент","base.uz",,,"00978"
"Головной офис Ravnaq-bank","100021, г. Ташкент, Шайхантахурский район, ул. Фурката, 2",,,"г.Ташкент","base.uz",,,"00980"
"Головной офис Давр-банка","100011, г. Ташкент, Шайхантахурский район, ул. Навои-Заркайнар, блок-А",,,"г.Ташкент","base.uz",,,"00981"
"Джизакский филиал Туронбанка","130100, Джизакская область, г. Джизак, проспект Халклар дустлиги, 62",,,"Джизакская область","base.uz",,,"00982"
"Самаркандский филиал Алокабанка","140100, Самаркандская область, г. Самарканд, ул. Бустонсарой, 36a",,,"Самаркандская область","base.uz",,,"00985"
"Мирабадский филиал Туронбанка","100072, г. Ташкент, Мирабадский район, ул. Фергана йули, 2а",,,"г.Ташкент","base.uz",,,"00986"
"Ташкентский областной региональный филиал Кишлок курилиш банка","100100, г. Ташкент, Яккасарайский район, ул. Усмона Носира, 53 Б",,,"г.Ташкент","base.uz",,,"00987"
"Алмалыкский филиал HAMKORBANK","110600, Ташкентская область, г. Алмалык, Мустакиллик, 10",,,"Ташкентская область","base.uz",,,"00988"
"Шахрисабзский филиал Туронбанка","181300, Кашкадарьинская область, Шахрисабзский район, г. Шахрисабз, ул. Буюк Ипак йули, 2-а",,,"Кашкадарьинская область","base.uz",,,"00989"
"Кашкадарьинский филиал Алокабанка","180100, Кашкадарьинская область, г. Карши, ул. Узбекистанская, 47",,,"Кашкадарьинская область","base.uz",,,"00990"
"Маргиланский филиал HAMKORBANK","151100, Ферганская область, г. Маргилан, ул. Б. Маргилоний, 440a",,,"Ферганская область","base.uz",,,"00991"
"Филиал Юксалиш HAMKORBANK","160108, Наманганская область, г. Наманган, ул. А. Навои, 31",,,"Наманганская область","base.uz",,,"00992"
"Амир Темурский филиал Узпромстройбанка","140158, Самаркандская область, г. Самарканд, ул. Буюк Ипак йули, 13",,,"Самаркандская область","base.uz",,,"00994"
"Ташкентский городской филиал Универсал банка","100029, г. Ташкент, Мирабадский район, ул. Амира Темура, 53",,,"г.Ташкент","base.uz",,,"00996"
"Чиланзарский филиал Ипотека банка","100113, г. Ташкент, Чиланзарский район, ул. Катартал, 37",,,"г.Ташкент","base.uz",,,"00997"
"Урикзарский филиал Ипак Йули банка","100210, г. Ташкент, Учтепинский район, ул. Каравон базар, -",,,"г.Ташкент","base.uz",,,"00999"
"Термезский филиал HAMKORBANK","Сурхандарьинская область, г. Термез, ул. Ат-Термизий, 15a",,,"Сурхандарьинская область","base.uz",,,"01001"
"Кувасайский филиал HAMKORBANK","150901, Ферганская область, г. Кувасай, ул. А. Навои, 1",,,"Ферганская область","base.uz",,,"01003"
"Самаркандский областной филиал Народного банка","140145, Самаркандская область, г. Самарканд, ул. А. Навои, 25",,,"Самаркандская область","base.uz",,,"01005"
"Навоийский филиал Алокабанка","210600, Навоийская область, Карманинский район, Янги Арик КФЙ",,,"Навоийская область","base.uz",,,"01007"
"Авиастроительный филиал HAMKORBANK","100016, г. Ташкент, Яшнободский район, ул. 1-переулок Алимкент, 5",,,"г.Ташкент","base.uz",,,"01008"
"Кумкурганский филиал Кишлок курилиш банка","190900, Сурхандарьинская область, Кумкурганский район, г. Кумкурган, ул. Махалля Оксой, 5",,,"Сурхандарьинская область","base.uz",,,"01010"
"Ферганский филиал Алокабанка","150100, Ферганская область, г.Фергана, Б. Маргилоний, 68a",,,"Ферганская область","base.uz",,,"01011"
"Яккасарайский филиал HAMKORBANK","100070, г. Ташкент, Яккасарайский район, ул. У. Носира, 57",,,"г.Ташкент","base.uz",,,"01013"
"Янгиабадский филиал Кишлок курилиш банка","Джизакская область, Янгиабадский район, ул. поселок Баландчакир",,,"Джизакская область","base.uz",,,"01016"
"Яккасарайский филиал Ипотека банка","100013, г. Ташкент, Яккасарайский район, ул. Усмона Носира, 61",,,"г.Ташкент","base.uz",,,"01017"
"Мирзо-Улугбекский филиал Капиталбанка","100077, г. Ташкент, Мирзо-Улугбекский район, ул. Мирзо Улугбека, 52 б",,,"г.Ташкент","base.uz",,,"01018"
"Зангиатинский филиал Туронбанка","111800, Ташкентская область, Зангиатинский район, ул. Мустакиллик, 2",,,"Ташкентская область","base.uz",,,"01019"
"Ургенчский филиал HAMKORBANK","220500, Хорезмская область, г. Ургенч, ул Пахлавона Махмуда, 59",,,"Хорезмская область","base.uz",,,"01020"
"Зарафшанский филиал Асака банка","210300, Навоийская область, г. Зарафшан, ул. А. Навои, 22-A",,,"Навоийская область","base.uz",,,"01021"
"Ангренский филиал Узпромстройбанка","110200, Ташкентская область, г. Ангрен, 5/1A квартал, 3",,,"Ташкентская область","base.uz",,,"01022"
"Джизакский филиал Алокабанка","130100, Джизакская область, г. Джизак, махалля ""Сайилжойи"", проспект Ш. Рашидова, дом 6",,,"Джизакская область","base.uz",,,"01026"
"Яккасарайский филиал Ипак Йули банка","100100, г. Ташкент, Яккасарайский район, ул. Усмона Носира, 5",,,"г.Ташкент","base.uz",,,"01028"
"Самаркандский филиал HAMKORBANK","140145, Самаркандская область, г. Самарканд, ул. Амира Темура, 149",,,"Самаркандская область","base.uz",,,"01030"
"Каршинский филиал HAMKORBANK","180100, Кашкадарьинская область, г. Карши, ул. Амира Темура, 41",,,"Кашкадарьинская область","base.uz",,,"01031"
"Термезский филиал Капиталбанка","190111, Сурхандарьинская область, г. Термез, ул. Навои, 28",,,"Сурхандарьинская область","base.uz",,,"01032"
"Филиал ""Чорсу"" Капиталбанка","100071, г. Ташкент, Шайхантахурский район, ул. Самарканд Дарбаза, 13",,,"г.Ташкент","base.uz",,,"01033"
"Алмалыкский филиал Узпромстройбанка","110111, Ташкентская область, г. Алмалык, ул. Амира Темура, 28",,,"Ташкентская область","base.uz",,,"01034"
"Филиал ""Сагбан"" Ипак Йули банка","100002, г. Ташкент, Алмазарский район, ул. Сагбан, 1",,,"г.Ташкент","base.uz",,,"01036"
"Головной офис Кишлок курилиш банка","100060, г. Ташкент, Мирабадский район, ул. Шахрисабзская, 36",,,"г.Ташкент","base.uz",,,"01037"
"Нукусский филиал Капиталбанка","230105, Республика Каракалпакстан, г. Нукус, ул. Ж. Аймурзаева, 8",,,"Республика Каракалпакстан","base.uz",,,"01038"
"Чиназский филиал Ипотека банка","111600, Ташкентская область, Чиназский район, г. Чиназ, ул. Шарофа Рашидова, 20",,,"Ташкентская область","base.uz",,,"01039"
"Головной офис Invest Finance Bank","100029, г. Ташкент, Мирабадский район, ул. Т. Шевченко, 1",,,"г.Ташкент","base.uz",,,"01041"
"Сергелийский филиал Капиталбанка","100085, г. Ташкент, Сергелийский район, ул. Новосергелийская, 25",,,"г.Ташкент","base.uz",,,"01042"
"Ферганский филиал Капиталбанка","Ферганская область, г.Фергана, Б. Маргиноний, 103",,,"Ферганская область","base.uz",,,"01043"
"Чартакский филиал Микрокредитбанка","161000, Наманганская область, Чартакский район, г. Чартак, проспект Мустакиллик, 9",,,"Наманганская область","base.uz",,,"01044"
"Сурхандарьинский региональный филиал Узпромстройбанка","190110, Сурхандарьинская область, г. Термез, ул. А. Навои, 45А",,,"Сурхандарьинская область","base.uz",,,"01045"
"Чиланзарский филиал Давр-банка","г. Ташкент, Чиланзарский район, ул. Фарход, 16/15",,,"г.Ташкент","base.uz",,,"01046"
"Филиал ""Джума"" Микрокредитбанка","Самаркандская область, Пастдаргомский район, г. Джума, ул. Амира Темура, А56",,,"Самаркандская область","base.uz",,,"01047"
"Шахрисабзский филиал Ипак Йули банка","181306, Кашкадарьинская область, Шахрисабзский район, г. Шахрисабз, ул. Пиллакашлик, 21",,,"Кашкадарьинская область","base.uz",,,"01048"
"Касансайский филиал Микрокредитбанка","160300, Наманганская область, Касансайский район, г. Касансай, ул. А. Жомий, 4",,,"Наманганская область","base.uz",,,"01049"
"Учкуприкский филиал Микрокредитбанка","151600, Ферганская область, Учкуприкский район, гп Учкуприк, ул. Наврузшох , 42",,,"Ферганская область","base.uz",,,"01052"
"Наманганский филиал Ипак Йули банка","160130, Наманганская область, г. Наманган, ул. Галаба, 2",,,"Наманганская область","base.uz",,,"01054"
"Элликкалинский филиал Микрокредитбанка","231600, Республика Каракалпакстан, Элликкалинский район, г. Бустан, ул. Шарофа Рашидова, 8",,,"Республика Каракалпакстан","base.uz",,,"01055"
"Ташкентский областной филиал Invest Finance Bank","111200, Ташкентская область, Кибрайский район, гп Кибрай, ул. Зебунисо, 7-а",,,"Ташкентская область","base.uz",,,"01056"
"Шайхонтохурский филиал ASIA ALLIANCE BANK","100128, г. Ташкент, Шайхантахурский район, ул. Шайхантахурская, 87А",,,"г.Ташкент","base.uz",,,"01057"
"Наманганский филиал Трастбанка","160130, Наманганская область, г. Наманган, ул. Хотира, 1",,,"Наманганская область","base.uz",,,"01060"
"Самаркандский филиал Капиталбанка","140103, Самаркандская область, г. Самарканд, ул. Надирабегим, 8",,,"Самаркандская область","base.uz",,,"01061"
"Термезский филиал Трастбанка","190108, Сурхандарьинская область, г. Термез, ул. Навбахор, 13 ""Г""",,,"Сурхандарьинская область","base.uz",,,"01063"
"Навоийский филиал HAMKORBANK","210109, Навоийская область, г. Навои, ул. Галаба, 198",,,"Навоийская область","base.uz",,,"01064"
"Яккасарайский филиал КДБ Банк Узбекистана","100070, г. Ташкент, Яккасарайский район, ул. У. Носира, 12",,,"г.Ташкент","base.uz",,,"01065"
"Головной офис HI-TECH BANK","100060, г. Ташкент, Мирабадский район, ул. Т.Шевченко, 35 Б, А",,,"г.Ташкент","base.uz",,,"01066"
"Чиланзарский филиал Ипак Йули банка","100135, г. Ташкент, Чиланзарский район, ул. Фарход, 12a",,,"г.Ташкент","base.uz",,,"01067"
"Нукусский филиал HAMKORBANK","230100, Республика Каракалпакстан, г. Нукус, ул. Амира Темура, 135",,,"Республика Каракалпакстан","base.uz",,,"01068"
"Яккасарайский филиал Давр-банка","100031, г. Ташкент, Яккасарайский район, ул. О. Мирокилова, 37A",,,"г.Ташкент","base.uz",,,"01069"
"Сергелийский филиал Invest Finance Bank","100209, г. Ташкент, Сергелийский район, ул. Сугдиёна, 3",,,"г.Ташкент","base.uz",,,"01070"
"Головной офис Ориент Финанс банка","100052, г. Ташкент, Мирзо Улу?бекский р-н, ул. Осиё, 5",,,"г.Ташкент","base.uz",,,"01071"
"Мирзо Улугбекский филиал Давр-банка","г. Ташкент, Мирзо-Улугбекский район, ул. Буюк Ипак йули, блок 2",,,"г.Ташкент","base.uz",,,"01072"
"Андижанский филиал Трастбанка","170100, Андижанская область, г. Андижан, ул. Лермонтова, 45",,,"Андижанская область","base.uz",,,"01074"
"Юнусабадский филиал Ориент Финанс банка","100084, г. Ташкент, Юнусабадский район, ул. Амира Темура, 95а",,,"г.Ташкент","base.uz",,,"01075"
"Кокандский филиал Ипотека банка","150700, Ферганская область, г. Коканд, ул. А. Навои, 164",,,"Ферганская область","base.uz",,,"01076"
"Янгиабадский филиал Узнацбанка","100016, г. Ташкент, Яшнободский район, ул. Элбек, 28",,,"г.Ташкент","base.uz",,,"01077"
"Ходжаабадский филиал Кишлок курилиш банка","171400, Андижанская область, Ходжаабадский район, г. Ходжаабад, ул. А. Навои, 17",,,"Андижанская область","base.uz",,,"01079"
"Зангиатинский филиал Invest Finance Bank","111800, Ташкентская область, Зангиатинский район, ул. Мустакиллик",,,"Ташкентская область","base.uz",,,"01080"
"Янгиюльский филиал Ипак Йули банка","112000, Ташкентская область, Янгиюльский район, г. Янгиюль, ул. Самарканд, 146",,,"Ташкентская область","base.uz",,,"01081"
"Бухарский филиал Капиталбанка","200114, Бухарская область, г. Бухара, ул. Саноатчилар, 11",,,"Бухарская область","base.uz",,,"01082"
"Яшнободский филиал Туронбанка","100171, г. Ташкент, Яшнободский район, ул. Карасув, 4",,,"г.Ташкент","base.uz",,,"01083"
"Чиланзарский филиал Туронбанка","100123, г. Ташкент, Чиланзарский район, ул. Фарход, 6-а",,,"г.Ташкент","base.uz",,,"01084"
"Наманганский филиал Капиталбанка","160133, Наманганская область, г. Наманган, ул. Н. Намангоний, 27",,,"Наманганская область","base.uz",,,"01085"
"Учтепинский филиал Давр-банка","100133, г. Ташкент, Учтепинский район, ул. Жамшида, 3",,,"г.Ташкент","base.uz",,,"01086"
"Кокандский филиал Капиталбанка","150700, Ферганская область, г. Коканд, ул. Сарбоз, 49 а",,,"Ферганская область","base.uz",,,"01087"
"Головной офис Капиталбанка","100047, г. Ташкент, Юнусабадский район, ул. Сайилгох, 7",,,"г.Ташкент","base.uz",,,"01088"
"Кокандский филиал Микрокредитбанка","150701, Ферганская область, г. Коканд, ул. А. Навои, 2",,,"Ферганская область","base.uz",,,"01089"
"Денауский филиал HAMKORBANK","190504, Сурхандарьинская область, Денауский район, г. Денау, ул. Шарофа Рашидова, 255a",,,"Сурхандарьинская область","base.uz",,,"01090"
"Мирабадский филиал Алокабанка","100060, г. Ташкент, Мирабадский район, ул. Нукусская, 22",,,"г.Ташкент","base.uz",,,"01091"
"Кокандский филиал Алокабанка","150702, Ферганская область, г. Коканд, ул.Туркистон, 1",,,"Ферганская область","base.uz",,,"01092"
"Маликрабатский филиал Узнацбанка","210609, Навоийская область, Карманинский район, ул. Маликрабат",,,"Навоийская область","base.uz",,,"01094"
"Головной офис ASIA ALLIANCE BANK","100047, г. Ташкент, Яшнободский район, ул. Махтумкули, 2а",,,"г.Ташкент","base.uz",,,"01095"
"Чиланзарский филиал Ориент Финанс банка","100115, г. Ташкент, Чиланзарский район, ул. Чиланзар-3, 55/1",,,"г.Ташкент","base.uz",,,"01096"
"Самаркандский филиал Трастбанка","140130, Самаркандская область, г. Самарканд, ул. Саида Ризо Хошимова, 43",,,"Самаркандская область","base.uz",,,"01097"
"Яккасарайский филиал Трастбанка","100100, г. Ташкент, Яккасарайский район, ул. 3-проезд Урикзар, 1-б",,,"г.Ташкент","base.uz",,,"01098"
"Каршинский филиал ASIA ALLIANCE BANK","180001, Кашкадарьинская область, г. Карши, пересечение улиц Узбекистанская и Х.Джураева",,,"Кашкадарьинская область","base.uz",,,"01099"
"Бекабадский филиал Узпромстройбанка","110500, Ташкентская область, г. Бекабад, ул. Аббасова, 264",,,"Ташкентская область","base.uz",,,"01100"
"Мирабадский филиал Ипак Йули банка","100015, г. Ташкент, Мирабадский район, ул. Мирабад, 25",,,"г.Ташкент","base.uz",,,"01101"
"Алмазарский филиал ASIA ALLIANCE BANK","100069, г. Ташкент, Алмазарский район, ул. Северный Алмазар, 13Б",,,"г.Ташкент","base.uz",,,"01102"
"Мирзо Улугбекский филиал ASIA ALLIANCE BANK","100170, г. Ташкент, Мирзо-Улугбекский район, ул. Зиёлилар, 1",,,"г.Ташкент","base.uz",,,"01103"
"Головной офис Туркистон банка","100208, г. Ташкент, Учтепинский район, ул. Заргарлик, 48А",,,"г.Ташкент","base.uz",,,"01104"
"Шайхантаурский филиал Савдогар банка","100021, г. Ташкент, Шайхантахурский район, ул. Лайлатагун, 1",,,"г.Ташкент","base.uz",,,"01105"
"Ходжейлийский филиал Микрокредитбанка","231300, Республика Каракалпакстан, Ходжейлийский район, ул. С. Юсупова, 71",,,"Республика Каракалпакстан","base.uz",,,"01106"
"Бухарский областной филиал Invest Finance Bank","200118, Бухарская область, г. Бухара, проспект А. Навои, 1",,,"Бухарская область","base.uz",,,"01107"
"Чиланзарский филиал HAMKORBANK","100156, г. Ташкент, Чиланзарский район, Д20А квартал, 4a",,,"г.Ташкент","base.uz",,,"01108"
"Каршинский филиал Трастбанка","180106, Кашкадарьинская область, г. Карши, ул. Узбекистанская, 1а",,,"Кашкадарьинская область","base.uz",,,"01109"
"Центральный операционный филиал Ориент Финанс банка","100070, г. Ташкент, Яккасарайский район, ул. Кичик Бешёгоч, 50",,,"г.Ташкент","base.uz",,,"01110"
"Самаркандский филиал Ориент Финанс банка","140100, Самаркандская область, г.аСамарканд, ул. Мирзо Улугбека, 48",,,"Самаркандская область","base.uz",,,"01111"
"Регистанский филиал Узнацбанка","140105, Самаркандская область, г. Самарканд, ул. Фирдавсий, 7",,,"Самаркандская область","base.uz",,,"01112"
"Наманганский областной филиал Invest Finance Bank","160100, Наманганская область, г. Наманган, ул. Нодира, 4",,,"Наманганская область","base.uz",,,"01113"
"Андижанский областной филиал Invest Finance Bank","170100, Андижанская область, г. Андижан, ул. Истиклол, 38",,,"Андижанская область","base.uz",,,"01114"
"Шайхантохурский филиал Ориент Финанс банка","100004, г. Ташкент, Шайхантахурский район, ул. А. Навои, 33",,,"г.Ташкент","base.uz",,,"01115"
"Кокандский филиал Invest Finance Bank","150078, Ферганская область, г. Коканд, ул. Шохрухобод, 15-а",,,"Ферганская область","base.uz",,,"01116"
"Джизакский филиал HAMKORBANK","130114, Джизакская область, г. Джизак, ул. Шарофа Рашидова, 35",,,"Джизакская область","base.uz",,,"01117"
"Гулистанский филиал HAMKORBANK","120106, Сырдарьинская область, г. Гулистан, ул. Мустакиллик, 121",,,"Сырдарьинская область","base.uz",,,"01118"
"Каршинский филиал Ипак Йули банка","180100, Кашкадарьинская область, г. Карши, ул. Мустакиллик, 18",,,"Кашкадарьинская область","base.uz",,,"01119"
"Андижанский филиал Ипак Йули банка","170100, Андижанская область, г. Андижан, ул. Истиклол, 35",,,"Андижанская область","base.uz",,,"01120"
"Алмазарский филиал Давр-банка","100057, г. Ташкент, Алмазарский район, ул. Северный Алмазар, 17б",,,"г.Ташкент","base.uz",,,"01121"
"Юнусабадский филиал Давр-банка","100009, г. Ташкент, Юнусабадский район, ул. Кулоктепа, 27a",,,"г.Ташкент","base.uz",,,"01122"
"Ферганский филиал Трастбанка","150117, Ферганская область, г. Фергана, ул. Маърифат, 8",,,"Ферганская область","base.uz",,,"01123"
"Мирабадский филиал ASIA ALLIANCE BANK","100170, г. Ташкент, Мирабадский район, ул. Фаргона йули , 532/1",,,"г.Ташкент","base.uz",,,"01124"
"Главное операционное управление Народного банка","100096, г. Ташкент, Чиланзарский район, ул. Катартал, 46",,,"г.Ташкент","base.uz",,,"01125"
"Богишамольский филиал HAMKORBANK","140100, Самаркандская область, г. Самарканд, ул. М. Кошгарий, 49",,,"Самаркандская область","base.uz",,,"01126"
"Шайхантаурский филиал HAMKORBANK","100169, г. Ташкент, Шайхантахурский район, пересечение улиц Беруний-Хувайдо, 12a",,,"г.Ташкент","base.uz",,,"01127"
"Ферганский областной филиал Invest Finance Bank","150105, Ферганская область, г. Фергана, ул. Ал-Фаргоний, 52",,,"Ферганская область","base.uz",,,"01128"
"Хорезмский областной филиал Invest Finance Bank","220100, Хорезмская область, г. Ургенч, ул. Узбекистанская, 4",,,"Хорезмская область","base.uz",,,"01129"
"Зангиатинский филиал Ипотека банка","111809, Ташкентская область, Зангиатинский район, ул. Амира Темура, 178",,,"Ташкентская область","base.uz",,,"01130"
"Ферганский филиал Универсал банка","150105, Ферганская область, г. Фергана, ул. Ал-Фаргоний, 69",,,"Ферганская область","base.uz",,,"01131"
"Операционное отделение Ташкентского городского филиала Народного банка","100031, г. Ташкент, Яккасарайский район, ул. Шота Руставели, 9",,,"г.Ташкент","base.uz",,,"01132"
"Самаркандский областной филиал Invest Finance Bank","140100, Самаркандская область, г. Самарканд, ул. Узбекистанская, 22",,,"Самаркандская область","base.uz",,,"01133"
"Кашкадарьинский областной филиал Invest Finance Bank","180117, Кашкадарьинская область, г.Карши, ул. Узбекистанская, 272",,,"Кашкадарьинская область","base.uz",,,"01135"
"Яшнободский филиал Капиталбанка","г. Ташкент, Яшнободский район, ул. Махтумкули, 1",,,"г. Ташкент","base.uz",,,"01136"
"Бухарский филиал ASIA ALLIANCE BANK","200107, Бухарская область, г. Бухара, ул. Б. Накшбандий, 195ф",,,"Бухарская область","base.uz",,,"01137"
"Юнусабадский филиал АО Ziraat Bank Uzbekistan","100084, г. Ташкент, Юнусабадский район, ул. А. Кодирий, дом 36 Б",,,"г. Ташкент","base.uz",,,"01138"
"Каракалпакстанский филиал Invest Finance Bank","230100, Республика Каракалпакстан, г. Нукус, ул. Гаресизлик, 65",,,"Республика Каракалпакстан","base.uz",,,"01139"
"Центральное операционное управления Агробанка","100096, г. Ташкент, Чиланзарский район, ул. Мукими, 43",,,"г.Ташкент","base.uz",,,"01140"
"Шайхантаурский филиал InFinBank","100011, г. Ташкент, Шайхантахурский район, ул. Навои, 18-Б",,,"г.Ташкент","base.uz",,,"01141"
"ЧАКБ ""Мадад Инвест Банк"" ","150100, Ферганская область, г. Фергана, ул. Мустакиллик, 312",,,"Ферганская область","base.uz",,,"01142"
"Самаркандский филиал ASIA ALLIANCE BANK","Самаркандская область, г. Самарканд, ул. Камола Отатурка",,,"Самаркандская область","base.uz",,,"01143"
"Юнусабадский филиал Туронбанка","100017, г. Ташкент, Юнусабадский район, Ц-6, ул. Хуршида, 85А",,,"г.Ташкент","base.uz",,,"01144"
"Шайхантахурский филиал Ипак Йули банка","100021, г. Ташкент, Шайхантахурский район, ул. Наваи, 25",,,"г.Ташкент","base.uz",,,"01145"
"Хавастский филиал Народного банка","120711, Сырдарьинская область, Хавастский район, Хавастский гп, махалля Бунёдкор, ул. Самарканд, 11",,,"Сырдарьинская область","base.uz",,,"01146"
"Карасарайский филиал Микрокредитбанка","100069, г. Ташкент, Алмазарский район, ул. Карасарай, 316",,,"г.Ташкент","base.uz",,,"01147"
"Навоийский областной филиал Invest Finance Bank","209109, Навийская область, г. Навои,  квартал 7, ул. Меъморлар",,,"Навоийская область","base.uz",,,"01148"
"Ангренский филиал HAMKORBANK","110200, Ташкентская область, г. Ангрен, ул. Ахангаран",,,"Ташкентская область","base.uz",,,"01149"
"Акционерный коммерческий банк “Ўзагроэкспортбанк”","100212, г. Ташкент, Юнусабадский район, ул. Амира Темура, 79А",,,"г. Ташкент","base.uz",,,"01150"
"Бувайдинский филиал Универсал банка","151900, Ферганская область, Бувайдинский район, Село Янгикурган, ул.Хилол, 22",,,"Ферганская область","base.uz",,,"01151"
"Джизакский региональный филиал Узпромстройбанка","130100, Джизакская область, г. Джизак, пр. Ш.Рашидова, 7",,,"Джизакская область","base.uz",,,"01152"
"Чиланзарский филиал ASIA ALLIANCE BANK","100115, г. Ташкент , Чиланзарский район, ул. Чиланзар, 53А",,,"г.Ташкент","base.uz",,,"01153"
"Мирза Улугбекский филиал Туронбанк","100017, г. Ташкент, Мирза Улугбекский район, ул. Буюк Ипак йули, 218-220",,,"г. Ташкент","base.uz",,,"01154"
"Ферганский региональный филиал HAMKORBANK","150100, Ферганская область, г. Фергана, ул. Мураббийлар, 41",,,"Ферганская область","base.uz",,,"01155"
"Наманганский региональный филиал HAMKORBANK","160108, Наманганская область, г. Наманган, ул. Амира Темура, 110",,,"Наманганская область","base.uz",,,"01156"
"Ургутский филиал HAMKORBANK","141600, Самаркандская область, Ургутский район, г. Ургут, ул. Дустлик МФЙ, пр. Навои 96",,,"Самаркандская область","base.uz",,,"01157"
"'Kapital 24'' филиал розничного бизнеса Капиталбанка","100047, г. Ташкент, Юнусабадский район, ул. Сайилгох, 7 А",,,"г.Ташкент","base.uz",,,"01158"
"Чирчикский филиал HAMKORBANK","111712, Ташкентская область, г. Чирчик, ул. А. Навои, дом 4",,,"Ташкентская область","base.uz",,,"01159"
"Чустский филиал HAMKORBANK","161100, Наманганская область, г. Чуст, ул. Сероб МФЙ, Истиклол, дом 21",,,"Наманганская область","base.uz",,,"01160"
"Хорезмский региональный филиал HAMKORBANK","220100, Хорезмский область, г. Ургенч, ул. Ёгду, дом 2/1",,,"Хорезмская область","base.uz",,,"01161"
"Хазараспский филиал HAMKORBANK","220700, Хорезмская область, Хазараспский район, ул. Гафура Гуляма, дом 9",,,"Хорезмская область","base.uz",,,"01162"
"Юнусабадский филиал HAMKORBANK","100194, г. Ташкент, Юнусабадский район, ул. Янги шахар, 59а",,,"г.Ташкент","base.uz",,,"01163"
"Учтепинский филиал HAMKORBANK","100157, г. Ташкент. Учтепинский район, ул. Катта хирман, 39",,,"г.Ташкент","base.uz",,,"01164"
"Учтепинский филиал InFinBank","100152, г. Ташкент. Учтепинский район, ул. Ширин, 1-А",,,"г.Ташкент","base.uz",,,"01165"
"Джизакский филиал Трастбанка","130100, Джизакская область, г. Джизак, ул. Шароф Рашидов, 114",,,"Джизакская область","base.uz",,,"01166"
"Мирабадский филиал Ориент Финанс банка","100029, г. Ташкент, Мирабадский район, ул. Яккачинор, 7А",,,"г.Ташкент","base.uz",,,"01167"
"Ферганскаяский филиал Ипак Йули банка","151900, Ферганская область, г. Фергана, ул. Комус, 26",,,"Ферганская область","base.uz",,,"01168"
"Хазараспский филиал Асака банка","220700, Хорезмская область, Хазараспcкий район, ул. Э.Гаязов",,,"Хорезмская область","base.uz",,,"01169"
"Дустободский филиал Ипотека банк","110901, Ташкентская область, Куйичирчикский район, г. Дустобод, ул. Аккурган, 1",,,"Ташкентская область","base.uz",,,"01170"
"Андижанский филиал Туронбанка","170100, Андижанская область, г. Андижан, ул Бобуршаха, 40",,,"Андижанская область","base.uz",,,"01171"
"Головной офис Пойтахт банка","100063, г. Ташкент, Чиланзарский район, ул. Ислама Каримова, 55",,,"г.Ташкент","base.uz",,,"01172"
"Ферганский филиал ASIA ALLIANCE BANK","150117, Ферганская область, г. Фергана, ул. Узбекистан овози, 4",,,"Ферганская область","base.uz",,,"01173"
"Зангиатинский филиал Универсал банк","111800, Ташкентская область, Зангиатинский район, ул. Мустакиллик, 24",,,"Ташкентская область","base.uz",,,"01174"
"Хорезмский городской филиал Народного банка","Сурхандарьинская область, г. Термез, ул. Маданият, 2а",,,"Сурхандарьинская область","base.uz",,,"01175"
"Головной офис Тenge Bank ","100007, г. Ташкент, Яшнабадский р-н, ул. Паркент, 66",,,"г. Ташкент","base.uz",,,"01176"
"Каршинский региональный филиал HAMKORBANK","г. Карши, Октепа МФЙ, ул. Ислама Каримова, 52",,,"Кашкадарьинская область","base.uz",,,"01177"
"Каттакурганский филиал Hamkorbank","14800, Самаркандская область, г. Каттакурган, ул. Узбекистанская, 65",,,"Самаркандская область","base.uz",,,"01178"
"Сергилинский филиал Кишлок курилиш банка","100085, г. Ташкент, Сергелинский район, ул. пересечение новый Сергели и Мехригиё, 116",,,"г.Ташкент","base.uz",,,"01179"
"Платежный центр Центрального банка","100001, г. Ташкент, Мирабадский район, ул. Ислама Каримова, 6",,,"г.Ташкент","base.uz",,,"09001"
"Расчетно-клиринговый центр Узнацбанка","100047, г. Ташкент, Яшнободский район, ул. Й.Охунбобоева, 23",,,"г.Ташкент","base.uz",,,"09002"
"Платежный центр Узпромстройбанка","100000, г. Ташкент, Юнусабадский район, ул. Шахрисабз, 3",,,"г.Ташкент","base.uz",,,"09003"
"Расчетный центр Агробанка","100096, г. Ташкент, Чиланзарский район, ул. Мукими, 43",,,"г.Ташкент","base.uz",,,"09004"
"Платежный центр Микрокредитбанка","100096, г. Ташкент, Чиланзарский район, ул. Лутфий, 14",,,"г.Ташкент","base.uz",,,"09005"
"Расчетный центр Народного банка","100000, г. Ташкент, Мирабадский район, ул. проспект Амира Темура, 3",,,"г.Ташкент","base.uz",,,"09006"
"Платежный центр Савдогар банка","100060, г. Ташкент, Мирабадский район, ул. Сайида Барака, 78",,,"г.Ташкент","base.uz",,,"09008"
"Платежный центр Кишлок курилиш банка","100011, г. Ташкент, Шайхантахурский район, ул. Навои, 18А",,,"г.Ташкент","base.uz",,,"09009"
"Платежный центр Туронбанка","100011, г. Ташкент, Шайхантахурский район, ул. Абая, 4-а",,,"г.Ташкент","base.uz",,,"09011"
"Платежный центр HAMKORBANK","170111, Андижанская область, г. Андижан, ул. Бобуршох, 85",,,"Андижанская область","base.uz",,,"09012"
"Платежный центр Асака банка","100015, г. Ташкент, Мирабадский район, ул. Нукусская, 67",,,"г.Ташкент","base.uz",,,"09013"
"Расчетный центр Ипак Йули банка","100017, г. Ташкент, Юнусабадский район, ул. Кодири , 2",,,"г.Ташкент","base.uz",,,"09014"
"Платежный центр АО Ziraat Bank Uzbekistan","100043, г. Ташкент, Чиланзарский район, проспект Бунёдкор, 15/АБВ",,,"г. Ташкент","base.uz",,,"09020"
"Платежный центр Трастбанка","100015, г. Ташкент, Шайхантахурский район, ул. А.Навои, 7",,,"г.Ташкент","base.uz",,,"09030"
"Платежный центр Алокабанка","100047, г. Ташкент, Мирабадский район, ул. проспект Амира Темура, 4",,,"г.Ташкент","base.uz",,,"09031"
"Платежный центр Ипотека банка","100000, г. Ташкент, Мирзо-Улугбекский район, ул. Шахрисабзская, 30",,,"г.Ташкент","base.uz",,,"09033"
"Платежный центр КДБ Банк Узбекистан","100047, г. Ташкент, Мирабадский район, ул. Бухоро, 3",,,"г.Ташкент","base.uz",,,"09034"
"Платежный центр Туркистон банка","100208, г. Ташкент, Учтепинский район, ул. Заргарлик, 48А",,,"г.Ташкент","base.uz",,,"09038"
"Платежный центр Универсал банка","150700, Ферганская область, г. Коканд, ул. Шохрухобод",,,"Ферганская область","base.uz",,,"09048"
"Расчетный центр Капиталбанка","100047, г. Ташкент, Юнусабадский район, ул. Сайилгох, 7",,,"г.Ташкент","base.uz",,,"09049"
"Платежный центр Давр-банка","100011, г. Ташкент, Шайхантахурский район, ул. Навои-Заркайнар, блок-А",,,"г.Ташкент","base.uz",,,"09051"
"Платежный центр Invest Finance Bank","100029, г. Ташкент, Мирабадский район, ул. Т. Шевченко, 1",,,"г.Ташкент","base.uz",,,"09053"
"Платежный центр ASIA ALLIANCE BANK","100047, г. Ташкент, Яшнободский район, ул. Тараккиёт, 2а",,,"г.Ташкент","base.uz",,,"09055"
"Платежный центр Ориент Финанс банка","100029, г. Ташкент, Мирабадский район, ул. Яккачинор, 7А",,,"г.Ташкент","base.uz",,,"09057"
